{"type":"FeatureCollection","features":[{"type":"Feature","properties":{"name":"Mizoram","area_km2":21153},"geometry":{"type":"Polygon","coordinates":[[[92.5108,22.7416],[92.4493,22.875],[92.3731,22.9357],[92.3907,23.0569],[92.3468,23.2388],[92.4024,23.2661],[92.3643,23.3237],[92.2735,23.642],[92.2647,23.7268],[92.256,23.8148],[92.3233,23.9148],[92.3116,24.0512],[92.3292,24.1846],[92.294,24.2452],[92.4229,24.2513],[92.4346,24.1543],[92.5313,24.1785],[92.5518,24.2482],[92.6133,24.2573],[92.625,24.3331],[92.6895,24.3543],[92.7627,24.512],[92.8008,24.421],[92.8974,24.3907],[93.0087,24.4119],[93.0234,24.2331],[92.9765,24.1149],[93.2079,24.0482],[93.2518,24.0209],[93.3953,23.9269],[93.4276,23.6511],[93.4246,23.5268],[93.3895,23.4965],[93.4012,23.3873],[93.3573,23.3297],[93.3924,23.2206],[93.3543,23.0751],[93.2987,23.0054],[93.1962,23.0569],[93.1229,23.0054],[93.1464,22.9266],[93.0966,22.7871],[93.0937,22.7083],[93.1434,22.584],[93.1317,22.4719],[93.1874,22.4234],[93.1991,22.2779],[93.161,22.1808],[93.0497,22.2021],[92.9999,22.0535],[92.9384,22.0172],[92.8564,22.0626],[92.7041,22.1505],[92.6895,22.0414],[92.5987,22.0111],[92.6045,22.1233],[92.5811,22.3203],[92.5108,22.7416]]]}},{"type":"Feature","properties":{"name":"Tamil Nadu","area_km2":131366},"geometry":{"type":"Polygon","coordinates":[[[77.2683,8.5791],[77.1687,8.7428],[77.198,8.7701],[77.2566,8.8792],[77.1921,8.9247],[77.1482,9.0096],[77.2039,9.0702],[77.2683,9.1521],[77.2829,9.2976],[77.3386,9.4188],[77.403,9.5249],[77.3181,9.6037],[77.2683,9.5734],[77.1658,9.6128],[77.2478,9.7977],[77.2127,9.8766],[77.2624,10.0281],[77.2683,10.1221],[77.2888,10.2312],[77.1804,10.3585],[77.0896,10.3161],[77.0516,10.2615],[76.9813,10.2191],[76.8992,10.2524],[76.8992,10.2555],[76.8905,10.2585],[76.8348,10.3403],[76.8143,10.4222],[76.8377,10.595],[76.908,10.7829],[76.8319,10.8708],[76.6561,10.9375],[76.7528,11.08],[76.6942,11.1679],[76.7059,11.2407],[76.6298,11.1952],[76.4423,11.2013],[76.5214,11.271],[76.5478,11.3589],[76.4599,11.3892],[76.2344,11.5286],[76.3779,11.6014],[76.4189,11.6711],[76.5097,11.7045],[76.5595,11.6226],[76.7587,11.6166],[76.8465,11.5953],[76.8348,11.656],[76.908,11.7954],[77.0135,11.8136],[77.1101,11.7742],[77.2917,11.8075],[77.4294,11.7681],[77.4938,11.9439],[77.6754,11.953],[77.7077,12.0349],[77.775,12.1137],[77.7457,12.1561],[77.611,12.2077],[77.5055,12.1986],[77.4704,12.244],[77.5495,12.2925],[77.6139,12.3683],[77.6344,12.4896],[77.5876,12.5138],[77.6022,12.6684],[77.7399,12.6715],[77.7926,12.7503],[77.8307,12.8655],[77.8658,12.8715],[77.9273,12.8897],[77.98,12.8352],[78.0562,12.8533],[78.1324,12.7836],[78.2319,12.7594],[78.3022,12.6654],[78.4106,12.626],[78.5922,12.7836],[78.6039,12.8443],[78.6215,12.9898],[78.7504,13.0534],[78.891,13.0959],[78.9935,13.0868],[79.1634,13.0201],[79.2337,13.105],[79.2278,13.1565],[79.2834,13.1231],[79.4387,13.1868],[79.4065,13.3353],[79.5383,13.3384],[79.5353,13.2747],[79.6818,13.2959],[79.7023,13.2232],[79.7931,13.2414],[79.8107,13.3171],[79.9454,13.3626],[80.0362,13.5384],[80.0801,13.4899],[80.2149,13.4899],[80.2676,13.5657],[80.3262,13.4445],[80.3437,13.2747],[80.2998,13.1413],[80.25,12.8594],[80.2559,12.7806],[80.1651,12.529],[80.1387,12.4108],[80.0069,12.2531],[79.8839,12.0652],[79.8575,12.05],[79.8575,12.0076],[79.84,11.9561],[79.7843,11.9591],[79.6847,11.8803],[79.8077,11.8439],[79.8077,11.8348],[79.796,11.7863],[79.7609,11.6226],[79.7667,11.5226],[79.8136,11.4225],[79.8575,11.177],[79.8517,10.986],[79.7492,10.9951],[79.7228,10.9284],[79.8195,10.8799],[79.8487,10.8284],[79.8722,10.3585],[79.8605,10.2828],[79.7697,10.2706],[79.4709,10.3161],[79.3889,10.3161],[79.2659,10.2282],[79.2278,10.1372],[79.2512,10.0493],[79.1253,9.8826],[79.1224,9.8796],[79.1194,9.8523],[79.1165,9.8493],[78.9818,9.6886],[78.929,9.5946],[78.8998,9.4703],[78.9847,9.3582],[79.0638,9.2976],[79.1575,9.2854],[79.3362,9.3097],[79.304,9.246],[79.2044,9.2794],[79.0901,9.2612],[78.9818,9.2733],[78.8734,9.2582],[78.5776,9.1308],[78.4253,9.1187],[78.3842,9.0945],[78.229,8.9732],[78.1704,8.8823],[78.1616,8.8065],[78.1939,8.7519],[78.1382,8.6792],[78.1441,8.5003],[78.0562,8.3791],[77.9713,8.3336],[77.8424,8.2517],[77.7955,8.1638],[77.5905,8.1396],[77.5553,8.0759],[77.444,8.0941],[77.2332,8.182],[77.0984,8.2911],[77.2624,8.5064],[77.2683,8.5791]]]}},{"type":"Feature","properties":{"name":"Madhya Pradesh","area_km2":308408},"geometry":{"type":"Polygon","coordinates":[[[76.3837,21.0774],[76.167,21.0774],[76.1582,21.2563],[76.0938,21.3715],[75.9854,21.3684],[75.6076,21.3897],[75.382,21.3806],[75.2121,21.4109],[75.1067,21.4624],[75.0511,21.5655],[74.8636,21.6352],[74.7757,21.614],[74.5824,21.6655],[74.5033,21.7261],[74.5238,21.9111],[74.4535,21.9626],[74.433,22.0293],[74.2807,21.9353],[74.146,21.9505],[74.0962,22.0172],[74.1226,22.099],[74.1226,22.2112],[74.0523,22.2991],[74.0698,22.3567],[74.1899,22.3203],[74.2163,22.4415],[74.1196,22.4203],[74.0581,22.5507],[74.1489,22.5204],[74.2632,22.6446],[74.3803,22.6356],[74.4037,22.7326],[74.4653,22.8174],[74.4594,22.9084],[74.392,22.8962],[74.3188,23.0599],[74.3862,23.1115],[74.5063,23.0842],[74.7347,23.2206],[74.5297,23.3206],[74.5707,23.4207],[74.7728,23.5419],[74.846,23.551],[74.9222,23.6662],[74.9398,23.7662],[74.9017,23.8723],[74.9749,24.0391],[74.8782,24.1725],[74.9075,24.2119],[74.8665,24.2422],[74.7552,24.2422],[74.7816,24.3392],[74.8548,24.4241],[74.8138,24.4695],[74.6966,24.4817],[74.7874,24.5847],[74.7728,24.6605],[74.805,24.7363],[74.89,24.6332],[74.9925,24.6938],[74.9778,24.7636],[74.8607,24.7999],[74.8255,24.9],[74.9017,24.9303],[74.9603,24.8575],[75.0393,24.8454],[75.1155,24.8788],[75.1126,24.9667],[75.1916,25.0364],[75.3527,25.0182],[75.3381,24.9515],[75.1829,24.7484],[75.4553,24.6817],[75.549,24.7029],[75.6076,24.6817],[75.7833,24.7605],[75.8243,24.6666],[75.921,24.5423],[75.9005,24.4422],[75.7862,24.4513],[75.7277,24.3968],[75.8126,24.2452],[75.7511,24.1421],[75.836,24.0573],[75.7013,23.9663],[75.5226,24.0239],[75.4611,23.9178],[75.5636,23.8572],[75.5841,23.7966],[75.6896,23.7481],[75.795,23.8663],[75.9385,23.8966],[76.0411,24.0664],[76.126,24.0876],[76.1172,24.1937],[76.2139,24.2088],[76.3222,24.2452],[76.5038,24.2028],[76.5712,24.2088],[76.6444,24.2695],[76.6766,24.1906],[76.8026,24.1179],[76.8817,24.13],[76.9227,24.2119],[76.8641,24.2725],[76.8319,24.3574],[76.8436,24.4362],[76.8172,24.5332],[76.8612,24.5483],[76.9783,24.4604],[77.0691,24.5574],[77.034,24.709],[76.9461,24.7605],[76.8553,24.7454],[76.8055,24.806],[76.949,24.8697],[76.8612,24.9606],[76.8758,25.0425],[77.0018,25.0758],[77.0867,25.0546],[77.1746,25.1122],[77.2683,25.1152],[77.3122,25.0819],[77.3942,25.1182],[77.4118,25.2243],[77.3679,25.4123],[77.3152,25.4305],[77.2332,25.3789],[77.2244,25.3183],[77.0838,25.3365],[76.9461,25.285],[76.8553,25.3335],[76.7616,25.3213],[76.6708,25.3486],[76.5946,25.4092],[76.5156,25.5275],[76.5038,25.6699],[76.5448,25.8397],[76.6415,25.9094],[76.7147,25.9003],[76.7879,25.9428],[76.8524,26.0307],[76.9022,26.0913],[76.9988,26.1307],[77.1189,26.2126],[77.2712,26.2671],[77.3737,26.3641],[77.4382,26.4035],[77.5378,26.4126],[77.7457,26.5369],[77.8219,26.549],[77.9039,26.6582],[78.0005,26.6945],[78.0884,26.6764],[78.1119,26.7946],[78.2232,26.831],[78.3579,26.8704],[78.396,26.8158],[78.5453,26.7643],[78.7797,26.7703],[78.8734,26.6976],[79.0081,26.6703],[78.9905,26.5794],[79.1341,26.4399],[79.137,26.3399],[78.9935,26.1974],[79.0111,26.0822],[78.9495,26.0276],[78.9378,25.9519],[78.8851,25.9125],[78.765,25.7215],[78.8119,25.6184],[78.7182,25.6033],[78.6566,25.5578],[78.4516,25.5729],[78.4194,25.5305],[78.4165,25.4759],[78.396,25.4426],[78.355,25.4517],[78.3403,25.4335],[78.3403,25.4153],[78.3432,25.3274],[78.3901,25.2061],[78.4458,25.1213],[78.3725,25.1],[78.3374,25.0849],[78.3345,25.0697],[78.3462,25.0121],[78.1704,24.8757],[78.1909,24.8424],[78.2759,24.6635],[78.2671,24.4513],[78.3696,24.3756],[78.3286,24.3271],[78.3901,24.2634],[78.5014,24.3907],[78.5863,24.3543],[78.7035,24.227],[78.806,24.1785],[78.973,24.3483],[78.9905,24.418],[78.9847,24.4422],[78.9144,24.4604],[78.9525,24.5483],[78.8822,24.6423],[78.7504,24.5999],[78.7797,24.706],[78.7709,24.8606],[78.6771,24.8969],[78.6332,24.9576],[78.6391,25.0697],[78.56,25.2122],[78.5131,25.2759],[78.6596,25.382],[78.7738,25.3517],[78.7328,25.4577],[78.8851,25.5153],[78.9437,25.4911],[78.8792,25.385],[78.9613,25.3456],[78.8705,25.188],[78.8792,25.1576],[78.929,25.2061],[79.0638,25.2213],[79.1311,25.1091],[79.2454,25.1152],[79.3245,25.1486],[79.304,25.1789],[79.2922,25.1849],[79.2776,25.2425],[79.2629,25.2728],[79.2805,25.3244],[79.3537,25.3304],[79.4358,25.2546],[79.3918,25.1698],[79.4065,25.1061],[79.4914,25.0788],[79.5705,25.1728],[79.673,25.1213],[79.7492,25.1395],[79.84,25.1],[79.8546,25.194],[80.0333,25.3426],[80.1036,25.3517],[80.2207,25.3971],[80.3145,25.388],[80.3115,25.285],[80.4053,25.2425],[80.4316,25.1758],[80.3525,25.1243],[80.291,25.0576],[80.2647,25.0243],[80.3408,25.0121],[80.4023,25.0697],[80.4785,24.9758],[80.5019,25.0425],[80.5927,25.091],[80.7157,25.0667],[80.7245,25.1182],[80.8446,25.188],[80.8798,25.0667],[80.83,25.0334],[80.8592,24.9273],[80.9471,24.9667],[81.035,24.9515],[81.1199,24.903],[81.1609,24.9121],[81.2634,25.0546],[81.2781,25.1667],[81.3923,25.1304],[81.5007,25.1486],[81.5417,25.188],[81.6266,25.1607],[81.6676,25.0606],[81.7936,25.003],[81.8932,24.9879],[81.943,24.8454],[82.0953,24.8181],[82.2154,24.7939],[82.2974,24.6059],[82.4175,24.5938],[82.4175,24.6514],[82.5229,24.6757],[82.6694,24.6969],[82.7074,24.6362],[82.7719,24.6423],[82.7982,24.5756],[82.7455,24.4968],[82.7133,24.3786],[82.769,24.3695],[82.7455,24.1664],[82.6635,24.127],[82.8129,23.9633],[82.6928,23.9178],[82.6342,23.839],[82.4966,23.7844],[82.2622,23.8208],[82.2095,23.8542],[82.0806,23.8148],[82.0074,23.8602],[81.9225,23.8723],[81.8112,23.8087],[81.7262,23.839],[81.6676,23.9239],[81.6032,23.8845],[81.612,23.836],[81.6969,23.7208],[81.6149,23.6632],[81.612,23.5116],[81.7584,23.548],[81.82,23.5146],[81.9166,23.5328],[81.9869,23.4146],[82.1041,23.3995],[82.2007,23.3146],[82.1246,23.1054],[81.943,23.0781],[81.9518,22.9842],[81.861,22.8902],[81.776,22.875],[81.7936,22.7659],[81.7321,22.675],[81.7292,22.6689],[81.6501,22.6143],[81.6208,22.5385],[81.4743,22.49],[81.3279,22.5264],[81.2488,22.4597],[81.1932,22.49],[81.1111,22.4355],[81.1199,22.29],[81.0438,22.2415],[81.0028,22.0596],[80.9061,22.1111],[80.8329,21.8959],[80.8475,21.8353],[80.8182,21.7625],[80.7567,21.7625],[80.7157,21.6625],[80.7392,21.4745],[80.6601,21.3321],[80.622,21.3199],[80.5283,21.3957],[80.4228,21.4412],[80.376,21.523],[80.2676,21.617],[80.1211,21.611],[80.0655,21.5534],[79.919,21.523],[79.7404,21.6019],[79.5383,21.5412],[79.509,21.5958],[79.4973,21.6746],[79.3918,21.6746],[79.2337,21.717],[79.2249,21.6473],[79.0784,21.6049],[78.9759,21.617],[78.9173,21.5897],[78.8998,21.5018],[78.5834,21.4867],[78.5102,21.5291],[78.434,21.4958],[78.4194,21.5715],[78.3432,21.5897],[78.2232,21.5534],[78.1763,21.4988],[78.0298,21.42],[77.8834,21.3836],[77.8014,21.4078],[77.5612,21.3957],[77.488,21.3745],[77.4558,21.5534],[77.5758,21.5261],[77.5436,21.7049],[77.4792,21.7716],[77.28,21.7595],[77.2097,21.6898],[77.0603,21.714],[77.0398,21.6989],[77.0223,21.6867],[77.0076,21.6776],[76.9988,21.6928],[76.9022,21.5958],[76.8553,21.614],[76.7821,21.5594],[76.7821,21.4624],[76.621,21.3321],[76.662,21.2805],[76.6239,21.1835],[76.4892,21.1926],[76.4775,21.1472],[76.3837,21.0774]]]}},{"type":"Feature","properties":{"name":"Maharashtra","area_km2":309372},"geometry":{"type":"Polygon","coordinates":[[[74.2104,15.7816],[74.1226,15.721],[74.1167,15.6513],[73.9908,15.6119],[73.938,15.7422],[73.8736,15.7513],[73.6861,15.7271],[73.5895,15.909],[73.5104,15.9362],[73.4108,16.2727],[73.3698,16.3637],[73.3464,16.5304],[73.3522,16.6153],[73.3054,16.7305],[73.3171,16.8062],[73.2761,16.8911],[73.2966,16.9851],[73.2878,17.1154],[73.2234,17.264],[73.2439,17.3216],[73.1824,17.3852],[73.1765,17.5823],[73.0447,17.9824],[72.9715,18.1249],[72.9685,18.2431],[73.03,18.2643],[72.9158,18.3553],[72.8953,18.4614],[72.9334,18.5402],[72.8572,18.6978],[72.869,18.8009],[72.8367,18.8645],[72.8016,18.9039],[72.8397,19.0495],[72.7869,19.1283],[72.784,19.2647],[72.7987,19.3041],[72.7196,19.5405],[72.7166,19.6466],[72.6551,19.8376],[72.6639,19.9346],[72.7313,19.971],[72.7079,20.0741],[72.7752,20.1316],[72.8719,20.2256],[72.9627,20.2074],[72.9656,20.1286],[73.1384,20.0862],[73.2116,20.1195],[73.2497,20.1226],[73.2995,20.2105],[73.4167,20.2044],[73.405,20.3863],[73.4694,20.4954],[73.4723,20.5833],[73.4079,20.6227],[73.4753,20.7197],[73.6158,20.6258],[73.6539,20.5651],[73.7447,20.5651],[73.8385,20.6197],[73.8736,20.7288],[73.9175,20.7228],[73.941,20.841],[73.8882,20.9319],[73.8502,20.9986],[73.8062,21.0077],[73.8004,21.0289],[73.7359,21.0774],[73.6656,21.1532],[73.815,21.1744],[73.8238,21.2714],[73.941,21.3018],[73.9585,21.3957],[74.0464,21.4473],[74.2104,21.4624],[74.3217,21.4988],[74.2749,21.5624],[74.1636,21.5685],[73.982,21.523],[73.8355,21.52],[73.815,21.6443],[73.8795,21.714],[73.8238,21.7595],[73.8179,21.8413],[73.938,21.8747],[74.146,21.9505],[74.2807,21.9353],[74.433,22.0293],[74.4535,21.9626],[74.5238,21.9111],[74.5033,21.7261],[74.5824,21.6655],[74.7757,21.614],[74.8636,21.6352],[75.0511,21.5655],[75.1067,21.4624],[75.2121,21.4109],[75.382,21.3806],[75.6076,21.3897],[75.9854,21.3684],[76.0938,21.3715],[76.1582,21.2563],[76.167,21.0774],[76.3837,21.0774],[76.4775,21.1472],[76.4892,21.1926],[76.6239,21.1835],[76.662,21.2805],[76.621,21.3321],[76.7821,21.4624],[76.7821,21.5594],[76.8553,21.614],[76.9022,21.5958],[76.9988,21.6928],[77.0076,21.6776],[77.0223,21.6867],[77.0398,21.6989],[77.0603,21.714],[77.2097,21.6898],[77.28,21.7595],[77.4792,21.7716],[77.5436,21.7049],[77.5758,21.5261],[77.4558,21.5534],[77.488,21.3745],[77.5612,21.3957],[77.8014,21.4078],[77.8834,21.3836],[78.0298,21.42],[78.1763,21.4988],[78.2232,21.5534],[78.3432,21.5897],[78.4194,21.5715],[78.434,21.4958],[78.5102,21.5291],[78.5834,21.4867],[78.8998,21.5018],[78.9173,21.5897],[78.9759,21.617],[79.0784,21.6049],[79.2249,21.6473],[79.2337,21.717],[79.3918,21.6746],[79.4973,21.6746],[79.509,21.5958],[79.5383,21.5412],[79.7404,21.6019],[79.919,21.523],[80.0655,21.5534],[80.1211,21.611],[80.2676,21.617],[80.376,21.523],[80.4228,21.4412],[80.5283,21.3957],[80.622,21.3199],[80.6601,21.3321],[80.6132,21.226],[80.4638,21.1744],[80.4404,21.0956],[80.4638,20.9289],[80.5458,20.935],[80.5605,20.8228],[80.581,20.6743],[80.5195,20.5803],[80.6161,20.5864],[80.5898,20.3923],[80.6249,20.3317],[80.3965,20.2438],[80.4316,20.1347],[80.5048,20.1438],[80.5458,20.1013],[80.5312,19.9407],[80.4697,19.8255],[80.5458,19.8194],[80.5634,19.7588],[80.6718,19.7042],[80.7157,19.6163],[80.8944,19.5193],[80.8534,19.3647],[80.7509,19.2889],[80.6132,19.3101],[80.5781,19.3981],[80.4814,19.3374],[80.3935,19.1859],[80.332,19.1434],[80.3291,19.0707],[80.2705,18.9434],[80.3496,18.8463],[80.2734,18.7645],[80.2764,18.719],[80.1182,18.6796],[80.0186,18.7706],[79.9132,18.8251],[79.96,18.8645],[79.9395,19.0343],[79.8575,19.101],[79.9278,19.1586],[79.9776,19.3981],[79.9454,19.4708],[79.8634,19.5102],[79.8077,19.5799],[79.7433,19.6103],[79.4709,19.5011],[79.3655,19.5769],[79.2542,19.5921],[79.1897,19.4587],[79.096,19.5314],[78.9378,19.5496],[78.9554,19.6557],[78.8587,19.6891],[78.8412,19.7618],[78.5746,19.8194],[78.4311,19.8134],[78.3813,19.88],[78.3052,19.9104],[78.3637,19.78],[78.3432,19.7133],[78.2759,19.6921],[78.3052,19.6072],[78.3081,19.4829],[78.2114,19.4284],[78.1939,19.3162],[78.1763,19.2374],[78.0416,19.2707],[77.9449,19.3435],[77.8629,19.3041],[77.86,19.1798],[77.7984,19.0737],[77.8424,18.907],[77.9478,18.8433],[77.8395,18.8039],[77.7867,18.6827],[77.7311,18.6675],[77.7399,18.5553],[77.5963,18.5493],[77.5846,18.4462],[77.5261,18.3735],[77.5495,18.2916],[77.4645,18.2613],[77.4089,18.3007],[77.4148,18.3916],[77.3181,18.4432],[77.2654,18.422],[77.2478,18.3704],[77.0633,18.1522],[76.952,18.1885],[76.9198,18.1188],[76.952,18.04],[76.9051,18.0097],[76.9198,17.9157],[76.7762,17.8763],[76.7411,17.9006],[76.7909,17.8248],[76.7147,17.7823],[76.6854,17.6823],[76.6561,17.7187],[76.5243,17.7611],[76.4892,17.6611],[76.4277,17.6429],[76.331,17.5974],[76.331,17.4701],[76.372,17.4368],[76.3837,17.3155],[76.2285,17.367],[76.0762,17.3367],[75.9327,17.3246],[75.8946,17.4004],[75.8126,17.3731],[75.6339,17.4762],[75.5724,17.3822],[75.6046,17.3064],[75.6544,17.2731],[75.6251,17.173],[75.672,17.1154],[75.6661,16.979],[75.5285,16.9699],[75.464,16.9881],[75.341,16.9548],[75.2795,16.9548],[75.2649,16.8638],[75.1829,16.8426],[75.0891,16.9517],[74.9017,16.8638],[74.9192,16.7729],[74.849,16.7729],[74.6966,16.7153],[74.6293,16.585],[74.5707,16.5546],[74.5443,16.6365],[74.3159,16.5546],[74.3335,16.4546],[74.3159,16.3273],[74.3745,16.2606],[74.4799,16.2485],[74.4799,16.1484],[74.3715,16.0787],[74.4623,16.0393],[74.3862,15.9029],[74.3452,15.7635],[74.2397,15.7453],[74.2104,15.7816]]]}},{"type":"Feature","properties":{"name":"Chhattisgarh","area_km2":135802},"geometry":{"type":"Polygon","coordinates":[[[81.3982,17.8187],[81.2664,17.8127],[81.1668,17.8581],[81.0848,17.7975],[81.0174,17.7945],[80.9705,18.0491],[80.9793,18.1673],[80.8651,18.14],[80.8534,18.2067],[80.7567,18.1704],[80.7479,18.3098],[80.7069,18.4401],[80.6366,18.522],[80.455,18.6311],[80.373,18.6099],[80.2764,18.719],[80.2734,18.7645],[80.3496,18.8463],[80.2705,18.9434],[80.3291,19.0707],[80.332,19.1434],[80.3935,19.1859],[80.4814,19.3374],[80.5781,19.3981],[80.6132,19.3101],[80.7509,19.2889],[80.8534,19.3647],[80.8944,19.5193],[80.7157,19.6163],[80.6718,19.7042],[80.5634,19.7588],[80.5458,19.8194],[80.4697,19.8255],[80.5312,19.9407],[80.5458,20.1013],[80.5048,20.1438],[80.4316,20.1347],[80.3965,20.2438],[80.6249,20.3317],[80.5898,20.3923],[80.6161,20.5864],[80.5195,20.5803],[80.581,20.6743],[80.5605,20.8228],[80.5458,20.935],[80.4638,20.9289],[80.4404,21.0956],[80.4638,21.1744],[80.6132,21.226],[80.6601,21.3321],[80.7392,21.4745],[80.7157,21.6625],[80.7567,21.7625],[80.8182,21.7625],[80.8475,21.8353],[80.8329,21.8959],[80.9061,22.1111],[81.0028,22.0596],[81.0438,22.2415],[81.1199,22.29],[81.1111,22.4355],[81.1932,22.49],[81.2488,22.4597],[81.3279,22.5264],[81.4743,22.49],[81.6208,22.5385],[81.6501,22.6143],[81.7292,22.6689],[81.7321,22.675],[81.7936,22.7659],[81.776,22.875],[81.861,22.8902],[81.9518,22.9842],[81.943,23.0781],[82.1246,23.1054],[82.2007,23.3146],[82.1041,23.3995],[81.9869,23.4146],[81.9166,23.5328],[81.82,23.5146],[81.7584,23.548],[81.612,23.5116],[81.6149,23.6632],[81.6969,23.7208],[81.612,23.836],[81.6032,23.8845],[81.6676,23.9239],[81.7262,23.839],[81.8112,23.8087],[81.9225,23.8723],[82.0074,23.8602],[82.0806,23.8148],[82.2095,23.8542],[82.2622,23.8208],[82.4966,23.7844],[82.6342,23.839],[82.6928,23.9178],[82.8129,23.9633],[82.9476,23.8723],[83.0911,23.8723],[83.2083,23.9208],[83.3284,24.1027],[83.4309,24.0845],[83.5158,23.9815],[83.5715,23.8633],[83.7062,23.8208],[83.7736,23.6086],[83.9376,23.5692],[84.0167,23.6359],[84.0138,23.5025],[83.964,23.3843],[84.0753,23.3328],[84.0372,23.1721],[84.0636,23.1145],[84.1778,22.9811],[84.374,22.9781],[84.3975,22.9266],[84.3242,22.8508],[84.292,22.772],[84.2393,22.6901],[84.1514,22.6356],[84.0841,22.6386],[84.0108,22.5719],[84.0108,22.5264],[84.046,22.4688],[84.0108,22.3718],[83.8644,22.3445],[83.8029,22.293],[83.6271,22.2021],[83.5363,22.0444],[83.5393,21.9656],[83.592,21.8262],[83.4602,21.6989],[83.4866,21.6443],[83.384,21.62],[83.3372,21.5018],[83.3987,21.4048],[83.3928,21.3442],[83.2757,21.3775],[83.2727,21.3775],[83.2698,21.3775],[83.1907,21.1381],[83.0765,21.1108],[82.9652,21.1744],[82.6401,21.1532],[82.6371,21.0896],[82.561,20.9471],[82.4878,20.9077],[82.4585,20.8258],[82.3384,20.8743],[82.353,20.7015],[82.3765,20.6318],[82.3325,20.5621],[82.438,20.4348],[82.3999,20.3408],[82.4204,20.2044],[82.3853,20.1468],[82.3999,20.0559],[82.7192,19.9892],[82.6957,19.8315],[82.5932,19.777],[82.5317,19.88],[82.4468,19.9104],[82.3442,19.8376],[82.2681,19.974],[82.1832,19.9861],[82.0689,20.0589],[82.0191,20.0498],[81.9459,20.1044],[81.8756,20.0528],[81.8756,20.0498],[81.8463,19.9528],[81.8698,19.9013],[81.9693,19.8588],[81.9869,19.8012],[82.066,19.7921],[82.0601,19.6284],[82.0279,19.5072],[82.1011,19.5163],[82.1275,19.4284],[82.189,19.4284],[82.1626,19.201],[82.2066,19.1222],[82.2447,18.9191],[82.1773,18.9039],[82.1597,18.7888],[82.0924,18.7372],[81.899,18.6614],[81.9108,18.5705],[81.7702,18.4189],[81.7497,18.3553],[81.6589,18.3462],[81.53,18.2401],[81.5241,18.1522],[81.4802,18.0521],[81.4831,17.9763],[81.4011,17.8945],[81.3982,17.8187]]]}},{"type":"Feature","properties":{"name":"Gujarat","area_km2":185582},"geometry":{"type":"MultiPolygon","coordinates":[[[[70.2387,20.9926],[70.0923,21.1138],[69.981,21.226],[69.7086,21.5352],[69.3717,21.8292],[69.3952,21.8898],[69.3512,21.8383],[69.2165,21.9565],[68.9675,22.2324],[68.9382,22.3112],[69.0056,22.4385],[69.1638,22.3476],[69.1784,22.2142],[69.3395,22.3112],[69.4918,22.3354],[69.5416,22.3779],[69.6207,22.3718],[69.7525,22.4173],[69.8638,22.4628],[69.9751,22.5416],[70.1245,22.5537],[70.2241,22.6598],[70.2182,22.7174],[70.2914,22.7659],[70.3998,22.9053],[70.4496,22.8447],[70.4965,22.9326],[70.5609,23.0296],[70.6898,23.1175],[70.7191,23.1903],[70.5053,23.1782],[70.4262,23.2176],[70.3119,23.2145],[70.1655,23.066],[70.0806,22.9205],[69.9253,22.8962],[69.7701,22.8265],[69.6471,22.7962],[69.4186,22.8114],[69.1316,22.875],[68.6336,23.1691],[68.5311,23.2812],[68.5487,23.357],[68.3993,23.4207],[68.4169,23.4874],[68.3261,23.4965],[68.3114,23.5783],[68.1416,23.6026],[68.1006,23.6783],[68.1738,23.6965],[68.2089,23.8754],[68.3378,23.9663],[68.7537,23.9724],[68.7654,24.2967],[68.8474,24.2391],[68.947,24.3028],[69.0027,24.224],[69.0935,24.2725],[69.1931,24.2361],[69.3132,24.2816],[69.4918,24.2664],[69.5943,24.2937],[69.732,24.1694],[70.0249,24.1694],[70.1098,24.2937],[70.5726,24.421],[70.5726,24.2513],[70.6693,24.2179],[70.8069,24.221],[70.8743,24.2937],[70.9856,24.3665],[71.05,24.3574],[71.1028,24.4362],[70.9973,24.4453],[70.9856,24.5968],[71.1116,24.6757],[71.1877,24.6514],[71.2873,24.615],[71.3137,24.6484],[71.3488,24.6605],[71.3576,24.6302],[71.3781,24.6272],[71.4777,24.6787],[71.5304,24.6848],[71.5392,24.6787],[71.5509,24.6787],[71.5743,24.6848],[71.5802,24.6787],[71.6066,24.6757],[71.6095,24.6757],[71.6564,24.6393],[71.7091,24.6605],[71.7325,24.6605],[71.7706,24.6696],[71.7911,24.6787],[71.7911,24.6757],[71.8643,24.6757],[71.8731,24.6817],[71.9141,24.6726],[71.92,24.6726],[71.9932,24.6938],[71.9961,24.6938],[72.0576,24.712],[72.084,24.706],[72.0869,24.6878],[72.1426,24.6423],[72.1514,24.6423],[72.1631,24.6241],[72.166,24.6211],[72.1953,24.6241],[72.2304,24.6393],[72.2509,24.6272],[72.2597,24.6272],[72.2714,24.6362],[72.2861,24.6302],[72.3359,24.6332],[72.3476,24.6272],[72.3417,24.612],[72.3535,24.5635],[72.4032,24.515],[72.415,24.5211],[72.4413,24.515],[72.4325,24.4847],[72.4999,24.418],[72.494,24.4604],[72.5058,24.4574],[72.5204,24.4968],[72.5204,24.4998],[72.535,24.5029],[72.538,24.518],[72.5643,24.4907],[72.6815,24.4635],[72.6844,24.4635],[72.7284,24.3665],[72.8162,24.3634],[72.8543,24.3725],[72.8748,24.3634],[72.9598,24.3604],[73.0008,24.4786],[73.0886,24.4968],[73.0769,24.3968],[73.1501,24.3543],[73.0681,24.1937],[73.1267,24.1239],[73.2146,24.0785],[73.2439,24.0027],[73.3171,24.0542],[73.405,24.0421],[73.4167,23.9239],[73.3786,23.9027],[73.3698,23.8148],[73.4753,23.7056],[73.5221,23.6086],[73.5719,23.6541],[73.6569,23.6207],[73.6276,23.448],[73.7564,23.454],[73.8297,23.4267],[73.8912,23.3358],[73.9585,23.3813],[73.982,23.3388],[74.1401,23.2661],[74.1284,23.1751],[74.2485,23.1842],[74.3188,23.0599],[74.392,22.8962],[74.4594,22.9084],[74.4653,22.8174],[74.4037,22.7326],[74.3803,22.6356],[74.2632,22.6446],[74.1489,22.5204],[74.0581,22.5507],[74.1196,22.4203],[74.2163,22.4415],[74.1899,22.3203],[74.0698,22.3567],[74.0523,22.2991],[74.1226,22.2112],[74.1226,22.099],[74.0962,22.0172],[74.146,21.9505],[73.938,21.8747],[73.8179,21.8413],[73.8238,21.7595],[73.8795,21.714],[73.815,21.6443],[73.8355,21.52],[73.982,21.523],[74.1636,21.5685],[74.2749,21.5624],[74.3217,21.4988],[74.2104,21.4624],[74.0464,21.4473],[73.9585,21.3957],[73.941,21.3018],[73.8238,21.2714],[73.815,21.1744],[73.6656,21.1532],[73.7359,21.0774],[73.8004,21.0289],[73.8062,21.0077],[73.8502,20.9986],[73.8882,20.9319],[73.941,20.841],[73.9175,20.7228],[73.8736,20.7288],[73.8385,20.6197],[73.7447,20.5651],[73.6539,20.5651],[73.6158,20.6258],[73.4753,20.7197],[73.4079,20.6227],[73.4723,20.5833],[73.4694,20.4954],[73.405,20.3863],[73.4167,20.2044],[73.2995,20.2105],[73.2497,20.1226],[73.2116,20.1195],[73.1355,20.1983],[73.1677,20.2893],[73.0418,20.3257],[72.9334,20.2953],[72.9627,20.2074],[72.8719,20.2256],[72.7752,20.1316],[72.7401,20.2438],[72.7782,20.3378],[72.8279,20.3681],[72.8865,20.4621],[72.9041,20.5773],[72.8543,20.75],[72.7225,21.0501],[72.7518,21.0623],[72.62,21.0987],[72.6376,21.2108],[72.5966,21.3169],[72.6551,21.3442],[72.6932,21.4624],[72.7342,21.4745],[72.7079,21.5261],[72.6112,21.5806],[72.6991,21.6443],[72.5438,21.7322],[72.6229,21.808],[72.5087,21.9444],[72.5673,22.1808],[72.6493,22.2172],[72.7518,22.1718],[72.866,22.2142],[72.9451,22.293],[72.6581,22.2779],[72.5145,22.3203],[72.4589,22.2566],[72.3769,22.3142],[72.3388,22.1778],[72.2451,21.9959],[72.2041,21.8929],[72.2421,21.8231],[72.1953,21.7504],[72.3095,21.6261],[72.2363,21.4564],[72.1074,21.3018],[72.1133,21.1987],[71.8233,21.0805],[71.6769,20.9956],[71.5099,20.9441],[71.4367,20.8683],[71.3224,20.847],[71.2053,20.7955],[71.05,20.7319],[71.0003,20.741],[70.9212,20.741],[70.8274,20.6894],[70.4467,20.847],[70.2387,20.9926]]],[[[72.3564,21.7989],[72.3095,21.8413],[72.2919,21.9656],[72.374,22.0293],[72.4384,21.9262],[72.3564,21.7989]]]]}},{"type":"Feature","properties":{"name":"Odisha","area_km2":156664},"geometry":{"type":"Polygon","coordinates":[[[81.9781,18.0127],[81.8112,17.9582],[81.7174,17.8763],[81.6179,17.8248],[81.3982,17.8187],[81.4011,17.8945],[81.4831,17.9763],[81.4802,18.0521],[81.5241,18.1522],[81.53,18.2401],[81.6589,18.3462],[81.7497,18.3553],[81.7702,18.4189],[81.9108,18.5705],[81.899,18.6614],[82.0924,18.7372],[82.1597,18.7888],[82.1773,18.9039],[82.2447,18.9191],[82.2066,19.1222],[82.1626,19.201],[82.189,19.4284],[82.1275,19.4284],[82.1011,19.5163],[82.0279,19.5072],[82.0601,19.6284],[82.066,19.7921],[81.9869,19.8012],[81.9693,19.8588],[81.8698,19.9013],[81.8463,19.9528],[81.8756,20.0498],[81.8756,20.0528],[81.9459,20.1044],[82.0191,20.0498],[82.0689,20.0589],[82.1832,19.9861],[82.2681,19.974],[82.3442,19.8376],[82.4468,19.9104],[82.5317,19.88],[82.5932,19.777],[82.6957,19.8315],[82.7192,19.9892],[82.3999,20.0559],[82.3853,20.1468],[82.4204,20.2044],[82.3999,20.3408],[82.438,20.4348],[82.3325,20.5621],[82.3765,20.6318],[82.353,20.7015],[82.3384,20.8743],[82.4585,20.8258],[82.4878,20.9077],[82.561,20.9471],[82.6371,21.0896],[82.6401,21.1532],[82.9652,21.1744],[83.0765,21.1108],[83.1907,21.1381],[83.2698,21.3775],[83.2727,21.3775],[83.2757,21.3775],[83.3928,21.3442],[83.3987,21.4048],[83.3372,21.5018],[83.384,21.62],[83.4866,21.6443],[83.4602,21.6989],[83.592,21.8262],[83.5393,21.9656],[83.5363,22.0444],[83.6271,22.2021],[83.8029,22.293],[83.8644,22.3445],[84.0108,22.3718],[84.046,22.4688],[84.0108,22.5264],[84.1104,22.4779],[84.1954,22.3779],[84.292,22.3415],[84.4297,22.3506],[84.5351,22.4264],[84.749,22.4203],[84.8105,22.4537],[84.9569,22.4446],[85.0711,22.49],[85.077,22.2566],[85.0272,22.1233],[85.1795,22.0717],[85.2381,22.0111],[85.2762,22.0838],[85.3963,22.1627],[85.6833,22.0566],[85.7477,22.0747],[85.7829,21.9838],[85.8971,21.9838],[86.0084,22.1142],[86.0318,22.1899],[85.9733,22.2475],[86.0289,22.3354],[86.0172,22.4264],[85.9616,22.484],[86.067,22.5567],[86.1197,22.487],[86.2837,22.4476],[86.3599,22.3506],[86.4302,22.3173],[86.4976,22.3476],[86.5561,22.2991],[86.729,22.2172],[86.8373,22.099],[86.9633,22.0838],[87.0277,22.0384],[87.0013,21.9141],[87.1009,21.8626],[87.1097,21.9232],[87.2415,21.9656],[87.2503,21.8535],[87.2825,21.8019],[87.4407,21.7686],[87.4846,21.614],[87.4085,21.5443],[87.221,21.5352],[87.1478,21.5079],[86.9486,21.3593],[86.8578,21.2138],[86.852,21.0926],[86.9779,20.8592],[86.9691,20.7925],[86.8666,20.7834],[86.8051,20.7349],[86.8608,20.7743],[87.0218,20.7713],[87.057,20.7137],[86.7875,20.5348],[86.7377,20.4621],[86.7758,20.3347],[86.6792,20.265],[86.5327,20.1801],[86.3687,19.9831],[86.2281,19.9013],[85.8854,19.8134],[85.6774,19.7467],[85.3523,19.589],[85.1737,19.4678],[85.0799,19.3768],[84.9803,19.3162],[84.8105,19.1555],[84.7665,19.0767],[84.7021,19.1192],[84.623,19.0858],[84.5908,19.0222],[84.5146,19.0495],[84.4238,18.9494],[84.4355,18.9252],[84.3184,18.7888],[84.2247,18.8009],[84.0899,18.7584],[84.0372,18.816],[83.8908,18.816],[83.7941,19.0191],[83.7472,18.9949],[83.756,18.91],[83.6623,19.098],[83.6066,19.098],[83.4807,19.0343],[83.4602,18.9555],[83.3489,19.0191],[83.3167,18.9737],[83.4133,18.8736],[83.2054,18.7524],[83.1351,18.7857],[83.0003,18.6099],[83.0443,18.5462],[83.0179,18.4583],[83.0765,18.4038],[82.9681,18.3613],[82.8949,18.3826],[82.807,18.4523],[82.7719,18.3431],[82.5874,18.2765],[82.6079,18.3674],[82.4848,18.5281],[82.4263,18.4856],[82.3618,18.422],[82.3823,18.3674],[82.315,18.1855],[82.3501,18.1734],[82.3179,18.0461],[82.2505,17.9915],[82.1685,18.0521],[82.0308,18.0703],[81.9781,18.0127]]]}},{"type":"Feature","properties":{"name":"Andhra Pradesh","area_km2":163862},"geometry":{"type":"Polygon","coordinates":[[[78.6039,12.8443],[78.5922,12.7836],[78.4106,12.626],[78.3022,12.6654],[78.2319,12.7594],[78.2524,12.8594],[78.311,12.8594],[78.355,12.9413],[78.4663,12.9746],[78.5131,13.0625],[78.5863,13.2747],[78.4428,13.3081],[78.3637,13.3626],[78.3725,13.5081],[78.4018,13.5869],[78.3257,13.596],[78.1968,13.5687],[78.2027,13.6294],[78.1206,13.7143],[78.1265,13.787],[78.1148,13.8628],[78.0005,13.8719],[77.9713,13.9598],[77.8131,13.9143],[77.7809,13.8204],[77.6227,13.7688],[77.4558,13.6839],[77.4704,13.7597],[77.4323,13.8446],[77.3269,13.8325],[77.1804,13.8689],[77.157,13.8052],[77.0633,13.7446],[76.9783,13.8264],[77.0428,13.9325],[76.9315,14.0295],[76.949,14.0962],[76.8963,14.169],[77.0047,14.1993],[77.0281,14.0629],[77.1746,14.0113],[77.321,14.0295],[77.3972,13.9083],[77.4353,13.9477],[77.3913,14.0174],[77.3942,14.175],[77.5026,14.1568],[77.4792,14.2932],[77.4089,14.3357],[77.365,14.2751],[77.1394,14.3357],[77.116,14.2266],[77.0047,14.2356],[76.8846,14.3478],[76.9022,14.4903],[76.8055,14.5297],[76.7645,14.6024],[76.7762,14.6813],[76.8377,14.7904],[76.867,14.9692],[76.7616,14.9874],[76.7997,15.0966],[76.9842,15.0147],[77.1131,15.0329],[77.157,15.139],[77.1248,15.2269],[77.1511,15.2936],[77.0633,15.3269],[77.034,15.4361],[77.0311,15.6361],[77.0838,15.6604],[77.0252,15.8362],[77.0721,15.909],[77.2478,15.9635],[77.5143,15.9271],[77.6608,15.8847],[77.8043,15.8756],[77.8863,15.9059],[78.0826,15.8423],[78.1763,15.8574],[78.2495,15.9726],[78.2554,16.009],[78.4106,16.0757],[78.5512,16.0423],[78.601,16.0848],[78.7416,16.009],[78.9232,16.1242],[78.9056,16.1848],[79.0286,16.2424],[79.1575,16.2091],[79.2161,16.2273],[79.2102,16.3576],[79.219,16.5122],[79.2571,16.5668],[79.4182,16.5819],[79.4475,16.6183],[79.5412,16.6335],[79.6789,16.6941],[79.7931,16.7244],[79.878,16.6971],[79.9483,16.6365],[80.0567,16.7456],[80.0713,16.8184],[80.0391,16.9184],[80.0567,16.9699],[80.1885,17.0215],[80.3057,16.973],[80.3232,16.879],[80.5693,16.7668],[80.5634,16.8335],[80.6015,16.9184],[80.5341,16.9608],[80.3642,16.976],[80.5048,17.07],[80.581,17.1518],[80.6982,17.0851],[80.8446,17.0397],[80.8768,17.07],[80.8798,17.1609],[80.9413,17.2185],[80.994,17.1912],[81.1726,17.2306],[81.1902,17.3246],[81.2752,17.3185],[81.3103,17.4095],[81.0203,17.5186],[80.912,17.6368],[80.8856,17.7369],[80.9735,17.7793],[81.0584,17.7338],[81.0848,17.7975],[81.1668,17.8581],[81.2664,17.8127],[81.3982,17.8187],[81.6179,17.8248],[81.7174,17.8763],[81.8112,17.9582],[81.9781,18.0127],[82.0308,18.0703],[82.1685,18.0521],[82.2505,17.9915],[82.3179,18.0461],[82.3501,18.1734],[82.315,18.1855],[82.3823,18.3674],[82.3618,18.422],[82.4263,18.4856],[82.4848,18.5281],[82.6079,18.3674],[82.5874,18.2765],[82.7719,18.3431],[82.807,18.4523],[82.8949,18.3826],[82.9681,18.3613],[83.0765,18.4038],[83.0179,18.4583],[83.0443,18.5462],[83.0003,18.6099],[83.1351,18.7857],[83.2054,18.7524],[83.4133,18.8736],[83.3167,18.9737],[83.3489,19.0191],[83.4602,18.9555],[83.4807,19.0343],[83.6066,19.098],[83.6623,19.098],[83.756,18.91],[83.7472,18.9949],[83.7941,19.0191],[83.8908,18.816],[84.0372,18.816],[84.0899,18.7584],[84.2247,18.8009],[84.3184,18.7888],[84.4355,18.9252],[84.4238,18.9494],[84.5146,19.0495],[84.5908,19.0222],[84.623,19.0858],[84.7021,19.1192],[84.7636,19.0737],[84.6025,18.8918],[84.5527,18.7888],[84.4941,18.7403],[84.3535,18.5553],[84.1485,18.3735],[84.128,18.3128],[83.9347,18.2098],[83.6623,18.0794],[83.5188,17.9491],[83.4192,17.8551],[83.346,17.7247],[83.1614,17.5611],[83.0208,17.5065],[82.9916,17.4731],[82.7016,17.3428],[82.5434,17.2488],[82.3179,17.0578],[82.2476,16.9366],[82.2476,16.876],[82.3618,16.8547],[82.3179,16.6607],[82.315,16.5577],[82.2329,16.5425],[81.9576,16.397],[81.8492,16.3728],[81.7145,16.3121],[81.5534,16.3485],[81.3923,16.3424],[81.2664,16.2788],[81.2137,16.2091],[81.1463,15.9756],[81.0145,15.8514],[81.0086,15.7544],[80.9383,15.715],[80.83,15.7059],[80.7743,15.8665],[80.6806,15.8847],[80.5371,15.8514],[80.417,15.7998],[80.3145,15.724],[80.25,15.6331],[80.2061,15.4755],[80.1241,15.3694],[80.0391,15.0086],[80.1094,14.7389],[80.1973,14.5873],[80.168,14.3508],[80.1299,14.2296],[80.1446,14.0416],[80.2559,13.784],[80.2324,13.6567],[80.2676,13.5657],[80.2149,13.4899],[80.0801,13.4899],[80.0362,13.5384],[79.9454,13.3626],[79.8107,13.3171],[79.7931,13.2414],[79.7023,13.2232],[79.6818,13.2959],[79.5353,13.2747],[79.5383,13.3384],[79.4065,13.3353],[79.4387,13.1868],[79.2834,13.1231],[79.2278,13.1565],[79.2337,13.105],[79.1634,13.0201],[78.9935,13.0868],[78.891,13.0959],[78.7504,13.0534],[78.6215,12.9898],[78.6039,12.8443]],[[82.1861,16.7365],[82.2007,16.7214],[82.2388,16.7183],[82.2681,16.6941],[82.271,16.7214],[82.1861,16.7365]]]}},{"type":"Feature","properties":{"name":"Karnataka","area_km2":192743},"geometry":{"type":"Polygon","coordinates":[[[75.9356,11.9409],[75.8712,11.953],[75.795,12.0561],[75.6369,12.147],[75.5753,12.1561],[75.4845,12.2895],[75.4142,12.2895],[75.423,12.3714],[75.3645,12.4138],[75.4172,12.4987],[75.2795,12.5229],[75.1126,12.6806],[74.9808,12.7382],[74.8695,12.7594],[74.8226,12.8473],[74.7757,13.0716],[74.7171,13.3141],[74.6703,13.6354],[74.5824,13.9264],[74.515,13.9871],[74.4682,14.1902],[74.4418,14.2235],[74.395,14.4175],[74.354,14.5085],[74.269,14.6267],[74.2632,14.7207],[74.1167,14.7843],[74.0845,14.8995],[74.2016,14.9268],[74.2954,15.042],[74.2719,15.0966],[74.3159,15.1875],[74.2602,15.2421],[74.3247,15.2815],[74.3217,15.3694],[74.2749,15.3906],[74.2514,15.4906],[74.2778,15.5209],[74.2368,15.6665],[74.1167,15.6513],[74.1226,15.721],[74.2104,15.7816],[74.2397,15.7453],[74.3452,15.7635],[74.3862,15.9029],[74.4623,16.0393],[74.3715,16.0787],[74.4799,16.1484],[74.4799,16.2485],[74.3745,16.2606],[74.3159,16.3273],[74.3335,16.4546],[74.3159,16.5546],[74.5443,16.6365],[74.5707,16.5546],[74.6293,16.585],[74.6966,16.7153],[74.849,16.7729],[74.9192,16.7729],[74.9017,16.8638],[75.0891,16.9517],[75.1829,16.8426],[75.2649,16.8638],[75.2795,16.9548],[75.341,16.9548],[75.464,16.9881],[75.5285,16.9699],[75.6661,16.979],[75.672,17.1154],[75.6251,17.173],[75.6544,17.2731],[75.6046,17.3064],[75.5724,17.3822],[75.6339,17.4762],[75.8126,17.3731],[75.8946,17.4004],[75.9327,17.3246],[76.0762,17.3367],[76.2285,17.367],[76.3837,17.3155],[76.372,17.4368],[76.331,17.4701],[76.331,17.5974],[76.4277,17.6429],[76.4892,17.6611],[76.5243,17.7611],[76.6561,17.7187],[76.6854,17.6823],[76.7147,17.7823],[76.7909,17.8248],[76.7411,17.9006],[76.7762,17.8763],[76.9198,17.9157],[76.9051,18.0097],[76.952,18.04],[76.9198,18.1188],[76.952,18.1885],[77.0633,18.1522],[77.2478,18.3704],[77.2654,18.422],[77.3181,18.4432],[77.4148,18.3916],[77.4089,18.3007],[77.4645,18.2613],[77.5495,18.2916],[77.6022,18.2765],[77.5641,18.1946],[77.5993,18.0915],[77.5466,18.0552],[77.6579,17.9703],[77.5876,17.9066],[77.5378,17.7793],[77.4528,17.6944],[77.444,17.5853],[77.4675,17.5762],[77.4938,17.5671],[77.6842,17.5126],[77.5114,17.4307],[77.485,17.3549],[77.3796,17.2215],[77.365,17.1579],[77.4645,17.1094],[77.4968,17.0427],[77.4675,16.9548],[77.4587,16.8851],[77.4763,16.7881],[77.4265,16.7214],[77.4528,16.6153],[77.4177,16.5183],[77.2419,16.4728],[77.2888,16.4091],[77.4148,16.3667],[77.4909,16.3849],[77.5934,16.3424],[77.4997,16.2212],[77.5143,15.9271],[77.2478,15.9635],[77.0721,15.909],[77.0252,15.8362],[77.0838,15.6604],[77.0311,15.6361],[77.034,15.4361],[77.0633,15.3269],[77.1511,15.2936],[77.1248,15.2269],[77.157,15.139],[77.1131,15.0329],[76.9842,15.0147],[76.7997,15.0966],[76.7616,14.9874],[76.867,14.9692],[76.8377,14.7904],[76.7762,14.6813],[76.7645,14.6024],[76.8055,14.5297],[76.9022,14.4903],[76.8846,14.3478],[77.0047,14.2356],[77.116,14.2266],[77.1394,14.3357],[77.365,14.2751],[77.4089,14.3357],[77.4792,14.2932],[77.5026,14.1568],[77.3942,14.175],[77.3913,14.0174],[77.4353,13.9477],[77.3972,13.9083],[77.321,14.0295],[77.1746,14.0113],[77.0281,14.0629],[77.0047,14.1993],[76.8963,14.169],[76.949,14.0962],[76.9315,14.0295],[77.0428,13.9325],[76.9783,13.8264],[77.0633,13.7446],[77.157,13.8052],[77.1804,13.8689],[77.3269,13.8325],[77.4323,13.8446],[77.4704,13.7597],[77.4558,13.6839],[77.6227,13.7688],[77.7809,13.8204],[77.8131,13.9143],[77.9713,13.9598],[78.0005,13.8719],[78.1148,13.8628],[78.1265,13.787],[78.1206,13.7143],[78.2027,13.6294],[78.1968,13.5687],[78.3257,13.596],[78.4018,13.5869],[78.3725,13.5081],[78.3637,13.3626],[78.4428,13.3081],[78.5863,13.2747],[78.5131,13.0625],[78.4663,12.9746],[78.355,12.9413],[78.311,12.8594],[78.2524,12.8594],[78.2319,12.7594],[78.1324,12.7836],[78.0562,12.8533],[77.98,12.8352],[77.9273,12.8897],[77.8658,12.8715],[77.8307,12.8655],[77.7926,12.7503],[77.7399,12.6715],[77.6022,12.6684],[77.5876,12.5138],[77.6344,12.4896],[77.6139,12.3683],[77.5495,12.2925],[77.4704,12.244],[77.5055,12.1986],[77.611,12.2077],[77.7457,12.1561],[77.775,12.1137],[77.7077,12.0349],[77.6754,11.953],[77.4938,11.9439],[77.4294,11.7681],[77.2917,11.8075],[77.1101,11.7742],[77.0135,11.8136],[76.908,11.7954],[76.8348,11.656],[76.8465,11.5953],[76.7587,11.6166],[76.5595,11.6226],[76.5097,11.7045],[76.4189,11.6711],[76.413,11.759],[76.3193,11.7499],[76.208,11.8621],[76.1143,11.8591],[76.1143,11.9803],[76.003,11.9318],[75.9356,11.9409]]]}},{"type":"Feature","properties":{"name":"Goa","area_km2":3567},"geometry":{"type":"Polygon","coordinates":[[[74.0845,14.8995],[73.982,15.0541],[73.8853,15.3542],[73.9351,15.433],[73.7652,15.4937],[73.6861,15.7271],[73.8736,15.7513],[73.938,15.7422],[73.9908,15.6119],[74.1167,15.6513],[74.2368,15.6665],[74.2778,15.5209],[74.2514,15.4906],[74.2749,15.3906],[74.3217,15.3694],[74.3247,15.2815],[74.2602,15.2421],[74.3159,15.1875],[74.2719,15.0966],[74.2954,15.042],[74.2016,14.9268],[74.0845,14.8995]]]}},{"type":"Feature","properties":{"name":"Kerala","area_km2":38976},"geometry":{"type":"Polygon","coordinates":[[[77.0516,10.2615],[77.0896,10.3161],[77.1804,10.3585],[77.2888,10.2312],[77.2683,10.1221],[77.2624,10.0281],[77.2127,9.8766],[77.2478,9.7977],[77.1658,9.6128],[77.2683,9.5734],[77.3181,9.6037],[77.403,9.5249],[77.3386,9.4188],[77.2829,9.2976],[77.2683,9.1521],[77.2039,9.0702],[77.1482,9.0096],[77.1921,8.9247],[77.2566,8.8792],[77.198,8.7701],[77.1687,8.7428],[77.2683,8.5791],[77.2624,8.5064],[77.0984,8.2911],[76.9578,8.4215],[76.7001,8.7398],[76.6825,8.7762],[76.5478,8.9035],[76.4804,9.1217],[76.3486,9.3855],[76.3193,9.4825],[76.2812,9.7886],[76.167,10.1827],[76.2139,10.1948],[76.1611,10.1827],[76.1026,10.3828],[75.9561,10.6859],[75.9092,10.792],[75.8272,11.1224],[75.6984,11.4256],[75.6193,11.4771],[75.5548,11.7014],[75.5373,11.7045],[75.5314,11.7045],[75.385,11.856],[75.3557,11.8591],[75.2502,12.0076],[75.2004,12.0076],[75.1653,12.0894],[75.0423,12.3895],[75.0159,12.4168],[74.8695,12.7594],[74.9808,12.7382],[75.1126,12.6806],[75.2795,12.5229],[75.4172,12.4987],[75.3645,12.4138],[75.423,12.3714],[75.4142,12.2895],[75.4845,12.2895],[75.5753,12.1561],[75.6369,12.147],[75.795,12.0561],[75.8712,11.953],[75.9356,11.9409],[76.003,11.9318],[76.1143,11.9803],[76.1143,11.8591],[76.208,11.8621],[76.3193,11.7499],[76.413,11.759],[76.4189,11.6711],[76.3779,11.6014],[76.2344,11.5286],[76.4599,11.3892],[76.5478,11.3589],[76.5214,11.271],[76.4423,11.2013],[76.6298,11.1952],[76.7059,11.2407],[76.6942,11.1679],[76.7528,11.08],[76.6561,10.9375],[76.8319,10.8708],[76.908,10.7829],[76.8377,10.595],[76.8143,10.4222],[76.8348,10.3403],[76.8905,10.2585],[76.8992,10.2555],[76.8992,10.2524],[76.9813,10.2191],[77.0516,10.2615]],[[75.5548,11.7226],[75.5402,11.7378],[75.5373,11.7196],[75.5548,11.7226]]]}},{"type":"Feature","properties":{"name":"Telangana","area_km2":112957},"geometry":{"type":"Polygon","coordinates":[[[77.2888,16.4091],[77.2419,16.4728],[77.4177,16.5183],[77.4528,16.6153],[77.4265,16.7214],[77.4763,16.7881],[77.4587,16.8851],[77.4675,16.9548],[77.4968,17.0427],[77.4645,17.1094],[77.365,17.1579],[77.3796,17.2215],[77.485,17.3549],[77.5114,17.4307],[77.6842,17.5126],[77.4938,17.5671],[77.4675,17.5762],[77.444,17.5853],[77.4528,17.6944],[77.5378,17.7793],[77.5876,17.9066],[77.6579,17.9703],[77.5466,18.0552],[77.5993,18.0915],[77.5641,18.1946],[77.6022,18.2765],[77.5495,18.2916],[77.5261,18.3735],[77.5846,18.4462],[77.5963,18.5493],[77.7399,18.5553],[77.7311,18.6675],[77.7867,18.6827],[77.8395,18.8039],[77.9478,18.8433],[77.8424,18.907],[77.7984,19.0737],[77.86,19.1798],[77.8629,19.3041],[77.9449,19.3435],[78.0416,19.2707],[78.1763,19.2374],[78.1939,19.3162],[78.2114,19.4284],[78.3081,19.4829],[78.3052,19.6072],[78.2759,19.6921],[78.3432,19.7133],[78.3637,19.78],[78.3052,19.9104],[78.3813,19.88],[78.4311,19.8134],[78.5746,19.8194],[78.8412,19.7618],[78.8587,19.6891],[78.9554,19.6557],[78.9378,19.5496],[79.096,19.5314],[79.1897,19.4587],[79.2542,19.5921],[79.3655,19.5769],[79.4709,19.5011],[79.7433,19.6103],[79.8077,19.5799],[79.8634,19.5102],[79.9454,19.4708],[79.9776,19.3981],[79.9278,19.1586],[79.8575,19.101],[79.9395,19.0343],[79.96,18.8645],[79.9132,18.8251],[80.0186,18.7706],[80.1182,18.6796],[80.2764,18.719],[80.373,18.6099],[80.455,18.6311],[80.6366,18.522],[80.7069,18.4401],[80.7479,18.3098],[80.7567,18.1704],[80.8534,18.2067],[80.8651,18.14],[80.9793,18.1673],[80.9705,18.0491],[81.0174,17.7945],[81.0848,17.7975],[81.0584,17.7338],[80.9735,17.7793],[80.8856,17.7369],[80.912,17.6368],[81.0203,17.5186],[81.3103,17.4095],[81.2752,17.3185],[81.1902,17.3246],[81.1726,17.2306],[80.994,17.1912],[80.9413,17.2185],[80.8798,17.1609],[80.8768,17.07],[80.8446,17.0397],[80.6982,17.0851],[80.581,17.1518],[80.5048,17.07],[80.3642,16.976],[80.5341,16.9608],[80.6015,16.9184],[80.5634,16.8335],[80.5693,16.7668],[80.3232,16.879],[80.3057,16.973],[80.1885,17.0215],[80.0567,16.9699],[80.0391,16.9184],[80.0713,16.8184],[80.0567,16.7456],[79.9483,16.6365],[79.878,16.6971],[79.7931,16.7244],[79.6789,16.6941],[79.5412,16.6335],[79.4475,16.6183],[79.4182,16.5819],[79.2571,16.5668],[79.219,16.5122],[79.2102,16.3576],[79.2161,16.2273],[79.1575,16.2091],[79.0286,16.2424],[78.9056,16.1848],[78.9232,16.1242],[78.7416,16.009],[78.601,16.0848],[78.5512,16.0423],[78.4106,16.0757],[78.2554,16.009],[78.2495,15.9726],[78.1763,15.8574],[78.0826,15.8423],[77.8863,15.9059],[77.8043,15.8756],[77.6608,15.8847],[77.5143,15.9271],[77.4997,16.2212],[77.5934,16.3424],[77.4909,16.3849],[77.4148,16.3667],[77.2888,16.4091]]]}},{"type":"Feature","properties":{"name":"West Bengal","area_km2":83975},"geometry":{"type":"MultiPolygon","coordinates":[[[[88.1261,21.6746],[88.0324,21.6867],[88.1026,21.8413],[88.1671,21.8231],[88.17,21.7383],[88.1261,21.6746]]],[[[87.4846,21.614],[87.4407,21.7686],[87.2825,21.8019],[87.2503,21.8535],[87.2415,21.9656],[87.1097,21.9232],[87.1009,21.8626],[87.0013,21.9141],[87.0277,22.0384],[86.9633,22.0838],[86.8373,22.099],[86.729,22.2172],[86.8344,22.3264],[86.8461,22.3991],[86.7641,22.4264],[86.8022,22.487],[86.767,22.5749],[86.6587,22.5749],[86.6411,22.6568],[86.5591,22.7144],[86.4185,22.7902],[86.4361,22.9266],[86.5005,22.9933],[86.2427,22.9963],[86.0436,23.1448],[85.8854,23.166],[85.818,23.2691],[85.8825,23.351],[85.859,23.4298],[85.8854,23.4843],[86.0406,23.4995],[86.0816,23.5662],[86.1578,23.5601],[86.1783,23.4692],[86.3101,23.4116],[86.3658,23.5328],[86.4858,23.6359],[86.7114,23.6996],[86.8022,23.6996],[86.8256,23.7662],[86.8022,23.8329],[86.9164,23.8814],[87.0863,23.8117],[87.1302,23.8542],[87.2327,23.8572],[87.2942,23.9027],[87.2327,24.0239],[87.3353,24.036],[87.4407,23.9815],[87.6311,24.1634],[87.6399,24.2543],[87.7072,24.2604],[87.801,24.3816],[87.7922,24.5817],[87.8888,24.5665],[87.9093,24.7211],[87.839,24.7454],[87.8918,24.8545],[87.9591,24.9212],[87.9533,24.9727],[87.7951,25.0879],[87.7805,25.1455],[87.7775,25.2486],[87.7102,25.2577],[87.7629,25.2637],[87.8185,25.2425],[87.8478,25.2971],[87.7834,25.3395],[87.7687,25.4153],[87.8654,25.4972],[87.9591,25.5396],[88.0675,25.485],[88.0206,25.5972],[88.0499,25.7003],[87.9679,25.7245],[87.8918,25.867],[87.8273,25.8912],[87.8215,25.9367],[87.8478,25.9913],[87.842,25.9973],[87.8537,26.0307],[87.8508,26.0398],[87.9767,26.1428],[88.0734,26.1762],[88.1466,26.252],[88.2784,26.3308],[88.2403,26.4581],[88.1114,26.549],[88.1612,26.6369],[88.1876,26.7703],[88.1202,26.9492],[87.9913,27.1098],[88.0382,27.219],[88.0968,27.1341],[88.1554,27.1098],[88.2813,27.1311],[88.4248,27.0704],[88.5332,27.1765],[88.5976,27.1887],[88.7207,27.1402],[88.8642,27.1098],[88.8671,26.9643],[88.9198,26.9946],[89.0897,26.8886],[89.0897,26.84],[89.1278,26.8067],[89.2567,26.8067],[89.3738,26.8552],[89.4529,26.7976],[89.5466,26.8128],[89.6374,26.7521],[89.7634,26.6976],[89.8513,26.6976],[89.8688,26.6127],[89.8337,26.4157],[89.8425,26.3823],[89.781,26.352],[89.6989,26.2186],[89.7282,26.1701],[89.6345,26.2277],[89.6082,26.1519],[89.6492,26.064],[89.5408,26.0064],[89.3475,26.0095],[89.2303,26.1246],[89.1542,26.1398],[89.0956,26.3914],[88.9843,26.446],[88.9111,26.3793],[88.9872,26.349],[88.9257,26.2823],[88.7587,26.3277],[88.7031,26.3884],[88.5303,26.4793],[88.419,26.5642],[88.4014,26.643],[88.334,26.4975],[88.4834,26.4611],[88.5156,26.3641],[88.4014,26.3308],[88.3516,26.2217],[88.1788,26.1489],[88.0939,25.9306],[88.0997,25.8306],[88.1437,25.7942],[88.2667,25.7821],[88.4541,25.6639],[88.4453,25.5942],[88.6474,25.479],[88.8115,25.5244],[88.8408,25.3638],[88.9872,25.2728],[88.9111,25.1789],[88.8056,25.1698],[88.7353,25.2001],[88.4366,25.2001],[88.4512,25.0788],[88.3955,24.9697],[88.2784,24.8909],[88.2257,24.9606],[88.1407,24.9151],[88.1729,24.8606],[88.0675,24.7696],[88.0265,24.6908],[88.1319,24.5089],[88.334,24.4422],[88.3809,24.3968],[88.5596,24.3089],[88.6826,24.324],[88.7412,24.2543],[88.747,24.1482],[88.7002,24.0967],[88.7441,24.036],[88.7324,23.9118],[88.6064,23.8602],[88.5654,23.7117],[88.5918,23.6177],[88.7236,23.5116],[88.7617,23.4449],[88.7089,23.2327],[88.8115,23.2539],[88.9433,23.2054],[88.8583,22.969],[88.9696,22.8447],[88.914,22.7568],[88.9638,22.6931],[88.9257,22.6507],[88.9989,22.4294],[88.996,22.2869],[89.0663,22.2081],[89.0546,22.1293],[89.0692,21.9505],[89.0077,21.902],[88.9316,21.9414],[88.8525,21.9232],[88.7617,21.9535],[88.7617,22.0141],[88.6328,21.9535],[88.5332,21.8535],[88.4453,21.9171],[88.3926,21.8959],[88.3604,21.805],[88.2667,21.7292],[88.3018,21.6716],[88.2608,21.5564],[88.211,21.7837],[88.1466,21.9535],[88.2081,22.0262],[88.2198,22.102],[88.1847,22.1869],[88.0821,22.2627],[87.9972,22.2445],[88.0148,22.2021],[88.1349,22.1869],[88.1876,22.1051],[88.0646,22.0172],[87.9562,21.8322],[87.7892,21.6989],[87.675,21.6504],[87.4846,21.614]]],[[[89.0165,21.7777],[89.0926,21.6534],[89.037,21.611],[89.0165,21.7777]]],[[[88.7763,21.8686],[88.8085,21.6685],[88.747,21.6625],[88.6914,21.7504],[88.7148,21.905],[88.7763,21.8686]]],[[[88.9433,21.9141],[88.9491,21.7686],[88.8203,21.9262],[88.8818,21.9141],[88.9433,21.9141]]]]}},{"type":"Feature","properties":{"name":"Dadra and Nagar Haveli and Daman and Diu","area_km2":539},"geometry":{"type":"MultiPolygon","coordinates":[[[[73.2116,20.1195],[73.1384,20.0862],[72.9656,20.1286],[72.9627,20.2074],[72.9334,20.2953],[73.0418,20.3257],[73.1677,20.2893],[73.1355,20.1983],[73.2116,20.1195]]],[[[72.8865,20.4621],[72.8279,20.3681],[72.8367,20.453],[72.8865,20.4621]]],[[[70.9212,20.741],[71.0003,20.741],[70.9768,20.7015],[70.9212,20.741]]]]}},{"type":"Feature","properties":{"name":"Puducherry","area_km2":278},"geometry":{"type":"MultiPolygon","coordinates":[[[[79.8487,10.8284],[79.8195,10.8799],[79.7228,10.9284],[79.7492,10.9951],[79.8517,10.986],[79.8487,10.8284]]],[[[75.5548,11.7226],[75.5373,11.7196],[75.5402,11.7378],[75.5548,11.7226]]],[[[79.8077,11.8439],[79.6847,11.8803],[79.7843,11.9591],[79.84,11.9561],[79.8077,11.8439]]],[[[82.1861,16.7365],[82.271,16.7214],[82.2681,16.6941],[82.2388,16.7183],[82.2007,16.7214],[82.1861,16.7365]]]]}},{"type":"Feature","properties":{"name":"Lakshadweep","area_km2":2},"geometry":{"type":"Polygon","coordinates":[[[73.0535,8.273],[73.0418,8.2639],[73.0183,8.276],[73.0535,8.273]]]}},{"type":"Feature","properties":{"name":"Arunachal Pradesh","area_km2":82616},"geometry":{"type":"Polygon","coordinates":[[[92.6572,27.0068],[92.5635,26.9583],[92.4463,26.9583],[92.3585,26.9249],[92.1945,26.8886],[92.1124,26.8916],[92.1037,27.0068],[92.0334,27.0644],[92.0246,27.1614],[92.0714,27.2766],[92.0539,27.4009],[92.0129,27.4888],[91.9396,27.4615],[91.6555,27.4827],[91.5647,27.5858],[91.5589,27.6343],[91.6262,27.704],[91.6292,27.801],[91.8254,27.8101],[91.881,27.7222],[91.9865,27.7707],[92.0568,27.7586],[92.1564,27.8374],[92.256,27.8616],[92.3087,27.7798],[92.4668,27.8161],[92.5606,27.8222],[92.6689,27.898],[92.7334,27.9768],[92.6631,28.0678],[92.6895,28.1253],[92.8008,28.2011],[92.8974,28.2042],[93.0234,28.3042],[93.2225,28.3406],[93.1815,28.4315],[93.2782,28.5043],[93.3397,28.6407],[93.492,28.6831],[93.6238,28.6558],[93.8464,28.7074],[93.9636,28.7134],[93.9987,28.8407],[94.1569,28.9559],[94.1862,29.0378],[94.2916,29.1469],[94.359,29.153],[94.4322,29.2257],[94.5611,29.2288],[94.5787,29.2803],[94.6782,29.3288],[94.7925,29.2257],[94.8745,29.1833],[95.2523,29.1075],[95.2699,29.0499],[95.4544,29.0348],[95.5394,29.2106],[95.5892,29.2166],[95.7034,29.2985],[95.8821,29.3894],[95.9582,29.3803],[96.09,29.4591],[96.1779,29.3621],[96.2423,29.2318],[96.3946,29.253],[96.3448,29.1681],[96.2189,29.1348],[96.1515,29.0499],[96.2482,28.9408],[96.3448,29.0287],[96.4356,29.0348],[96.5176,28.9681],[96.5381,28.8802],[96.6084,28.7953],[96.585,28.7165],[96.4708,28.6831],[96.4942,28.6346],[96.3273,28.5103],[96.3712,28.483],[96.3126,28.383],[96.5089,28.4133],[96.5792,28.4558],[96.6641,28.4588],[96.7813,28.3648],[96.8955,28.38],[96.9951,28.3103],[97.0888,28.3618],[97.1708,28.2921],[97.2206,28.2921],[97.37,28.2193],[97.329,28.1557],[97.329,28.0587],[97.3876,28.0041],[97.3758,27.9101],[97.2528,27.901],[97.1562,27.8131],[97.0302,27.7495],[96.9013,27.613],[96.8603,27.6312],[96.9336,27.51],[96.9013,27.4524],[96.9629,27.4009],[97.0917,27.2129],[97.165,27.1402],[97.0624,27.0917],[96.9834,27.1553],[96.8603,27.1887],[96.8838,27.2584],[96.7959,27.3463],[96.6055,27.3645],[96.5089,27.2978],[96.3068,27.2948],[96.09,27.222],[96.0226,27.1796],[95.9465,27.0522],[95.803,27.0159],[95.7444,26.8946],[95.6829,26.9037],[95.6067,26.8128],[95.4954,26.8158],[95.4281,26.6976],[95.3021,26.6521],[95.2347,26.6824],[95.2025,26.8461],[95.2289,26.9219],[95.1967,27.0341],[95.2582,27.031],[95.3695,27.1098],[95.3753,27.0977],[95.4486,27.1311],[95.4837,27.2432],[95.5335,27.2644],[95.6331,27.2311],[95.7415,27.2675],[95.8557,27.2705],[95.9582,27.3099],[96.0168,27.3675],[95.9406,27.4372],[95.8821,27.4372],[95.8733,27.5433],[95.7795,27.6221],[95.7737,27.7313],[95.9699,27.9586],[95.8176,27.9707],[95.6067,27.9556],[95.5189,27.8828],[95.513,27.8798],[95.3812,27.8374],[95.308,27.8677],[95.1352,27.8161],[94.851,27.7282],[94.4615,27.5555],[94.3648,27.5736],[94.2389,27.6312],[94.2125,27.607],[94.2652,27.5191],[94.2184,27.5039],[93.9899,27.3281],[93.8054,27.1492],[93.8288,27.0674],[93.697,26.9946],[93.6648,26.9674],[93.4715,26.9371],[93.3983,26.9583],[93.0614,26.9219],[93.0204,26.9128],[92.8857,27.0007],[92.6719,27.031],[92.6572,27.0068]]]}},{"type":"Feature","properties":{"name":"Assam","area_km2":78828},"geometry":{"type":"Polygon","coordinates":[[[92.5313,24.1785],[92.4346,24.1543],[92.4229,24.2513],[92.294,24.2452],[92.2179,24.2876],[92.2589,24.3604],[92.215,24.5089],[92.253,24.6787],[92.294,24.7363],[92.2355,24.9],[92.297,24.9151],[92.3848,24.8515],[92.5166,24.8788],[92.4258,25.0303],[92.4815,25.1091],[92.5401,25.1],[92.6221,25.1152],[92.6631,25.1758],[92.7422,25.2061],[92.792,25.2819],[92.6543,25.4335],[92.5694,25.4668],[92.6602,25.5729],[92.584,25.5517],[92.5049,25.6184],[92.4434,25.7215],[92.2237,25.7154],[92.1505,25.673],[92.1505,25.8154],[92.2032,25.9064],[92.1652,25.97],[92.2735,26.064],[92.1739,26.0761],[92.1329,26.0458],[91.8664,26.0428],[91.8254,26.1186],[91.7229,26.0337],[91.7229,25.967],[91.5794,26.0337],[91.4446,25.8397],[91.3363,25.8397],[91.222,25.7215],[91.1459,25.8518],[91.0082,25.8245],[91.0258,25.8852],[90.9467,25.9488],[90.7182,25.9549],[90.6304,25.9185],[90.4341,25.9913],[90.1852,25.9428],[90.1237,25.9579],[90.0592,25.9125],[89.8981,25.7275],[90.0211,25.6063],[89.8776,25.5487],[89.8718,25.4759],[89.8513,25.4668],[89.8835,25.6184],[89.8278,25.7336],[89.8425,25.8821],[89.8864,25.9458],[89.7282,26.1701],[89.6989,26.2186],[89.781,26.352],[89.8425,26.3823],[89.8337,26.4157],[89.8688,26.6127],[89.8513,26.6976],[89.86,26.734],[90.0504,26.7309],[90.1939,26.7734],[90.232,26.8582],[90.3375,26.8613],[90.4166,26.9037],[90.5454,26.8158],[90.7182,26.7703],[90.9526,26.7764],[91.0551,26.7825],[91.099,26.8219],[91.2367,26.8128],[91.3363,26.7794],[91.4095,26.84],[91.4944,26.7915],[91.6262,26.8219],[91.7024,26.8128],[91.8928,26.9189],[91.9836,26.8582],[92.0568,26.8461],[92.1124,26.8916],[92.1945,26.8886],[92.3585,26.9249],[92.4463,26.9583],[92.5635,26.9583],[92.6572,27.0068],[92.6719,27.031],[92.8857,27.0007],[93.0204,26.9128],[93.0614,26.9219],[93.3983,26.9583],[93.4715,26.9371],[93.6648,26.9674],[93.697,26.9946],[93.8288,27.0674],[93.8054,27.1492],[93.9899,27.3281],[94.2184,27.5039],[94.2652,27.5191],[94.2125,27.607],[94.2389,27.6312],[94.3648,27.5736],[94.4615,27.5555],[94.851,27.7282],[95.1352,27.8161],[95.308,27.8677],[95.3812,27.8374],[95.513,27.8798],[95.5189,27.8828],[95.6067,27.9556],[95.8176,27.9707],[95.9699,27.9586],[95.7737,27.7313],[95.7795,27.6221],[95.8733,27.5433],[95.8821,27.4372],[95.9406,27.4372],[96.0168,27.3675],[95.9582,27.3099],[95.8557,27.2705],[95.7415,27.2675],[95.6331,27.2311],[95.5335,27.2644],[95.4837,27.2432],[95.4486,27.1311],[95.3753,27.0977],[95.3695,27.1098],[95.2582,27.031],[95.1967,27.0341],[95.1,26.9613],[94.9829,26.9128],[94.9243,26.9492],[94.8657,26.9098],[94.7895,26.7976],[94.7368,26.7491],[94.5874,26.7249],[94.4029,26.6097],[94.4,26.5339],[94.315,26.4611],[94.2858,26.5612],[94.1832,26.4551],[94.1627,26.352],[94.1042,26.3187],[94.0016,26.1732],[93.9548,25.97],[93.9782,25.9155],[93.8816,25.8427],[93.7761,25.8488],[93.7761,25.97],[93.6795,25.9034],[93.7029,25.8518],[93.5418,25.7306],[93.5125,25.676],[93.4276,25.6336],[93.328,25.5426],[93.4568,25.4335],[93.4686,25.3062],[93.3807,25.2395],[93.3455,25.1243],[93.246,24.9727],[93.2489,24.9151],[93.1757,24.7969],[93.1083,24.8121],[93.0849,24.709],[93.0878,24.5726],[93.0497,24.5453],[93.0087,24.4119],[92.8974,24.3907],[92.8008,24.421],[92.7627,24.512],[92.6895,24.3543],[92.625,24.3331],[92.6133,24.2573],[92.5518,24.2482],[92.5313,24.1785]]]}},{"type":"Feature","properties":{"name":"Nagaland","area_km2":16851},"geometry":{"type":"Polygon","coordinates":[[[93.5125,25.676],[93.5418,25.7306],[93.7029,25.8518],[93.6795,25.9034],[93.7761,25.97],[93.7761,25.8488],[93.8816,25.8427],[93.9782,25.9155],[93.9548,25.97],[94.0016,26.1732],[94.1042,26.3187],[94.1627,26.352],[94.1832,26.4551],[94.2858,26.5612],[94.315,26.4611],[94.4,26.5339],[94.4029,26.6097],[94.5874,26.7249],[94.7368,26.7491],[94.7895,26.7976],[94.8657,26.9098],[94.9243,26.9492],[94.9829,26.9128],[95.1,26.9613],[95.1967,27.0341],[95.2289,26.9219],[95.2025,26.8461],[95.2347,26.6824],[95.0619,26.449],[95.1234,26.349],[95.1176,26.1065],[95.185,26.0731],[95.1264,25.9882],[95.0151,25.8912],[95.0414,25.7427],[94.936,25.6669],[94.8833,25.5881],[94.8071,25.4941],[94.6753,25.4456],[94.5552,25.5032],[94.5523,25.579],[94.4879,25.6033],[94.4176,25.5366],[94.3209,25.5032],[94.2096,25.4972],[94.1891,25.5487],[94.1071,25.5214],[94.0075,25.5669],[93.9372,25.5578],[93.7644,25.5396],[93.8054,25.4638],[93.6677,25.3092],[93.6062,25.2001],[93.5008,25.2425],[93.4686,25.3062],[93.4568,25.4335],[93.328,25.5426],[93.4276,25.6336],[93.5125,25.676]]]}},{"type":"Feature","properties":{"name":"Meghalaya","area_km2":22462},"geometry":{"type":"Polygon","coordinates":[[[90.9701,25.1728],[90.8559,25.1607],[90.7797,25.1849],[90.6919,25.1607],[90.5103,25.1698],[90.4458,25.1455],[90.3316,25.191],[90.235,25.2031],[90.1119,25.2243],[89.9743,25.3001],[89.8337,25.2971],[89.8161,25.388],[89.8718,25.4759],[89.8776,25.5487],[90.0211,25.6063],[89.8981,25.7275],[90.0592,25.9125],[90.1237,25.9579],[90.1852,25.9428],[90.4341,25.9913],[90.6304,25.9185],[90.7182,25.9549],[90.9467,25.9488],[91.0258,25.8852],[91.0082,25.8245],[91.1459,25.8518],[91.222,25.7215],[91.3363,25.8397],[91.4446,25.8397],[91.5794,26.0337],[91.7229,25.967],[91.7229,26.0337],[91.8254,26.1186],[91.8664,26.0428],[92.1329,26.0458],[92.1739,26.0761],[92.2735,26.064],[92.1652,25.97],[92.2032,25.9064],[92.1505,25.8154],[92.1505,25.673],[92.2237,25.7154],[92.4434,25.7215],[92.5049,25.6184],[92.584,25.5517],[92.6602,25.5729],[92.5694,25.4668],[92.6543,25.4335],[92.792,25.2819],[92.7422,25.2061],[92.6631,25.1758],[92.6221,25.1152],[92.5401,25.1],[92.4815,25.1091],[92.4258,25.0303],[92.2003,25.1243],[92.0802,25.1849],[92.0158,25.188],[91.7463,25.1728],[91.6438,25.1243],[91.6028,25.1758],[91.4915,25.1334],[91.3802,25.1758],[91.3538,25.2334],[91.2513,25.1971],[91.0814,25.2031],[90.9701,25.1728]]]}},{"type":"Feature","properties":{"name":"Manipur","area_km2":22186},"geometry":{"type":"Polygon","coordinates":[[[93.3778,24.0876],[93.2518,24.0209],[93.2079,24.0482],[92.9765,24.1149],[93.0234,24.2331],[93.0087,24.4119],[93.0497,24.5453],[93.0878,24.5726],[93.0849,24.709],[93.1083,24.8121],[93.1757,24.7969],[93.2489,24.9151],[93.246,24.9727],[93.3455,25.1243],[93.3807,25.2395],[93.4686,25.3062],[93.5008,25.2425],[93.6062,25.2001],[93.6677,25.3092],[93.8054,25.4638],[93.7644,25.5396],[93.9372,25.5578],[94.0075,25.5669],[94.1071,25.5214],[94.1891,25.5487],[94.2096,25.4972],[94.3209,25.5032],[94.4176,25.5366],[94.4879,25.6033],[94.5523,25.579],[94.5552,25.5032],[94.6753,25.4456],[94.5757,25.2152],[94.6548,25.1152],[94.7368,25.1152],[94.7427,25.0364],[94.687,24.8909],[94.6314,24.8394],[94.6284,24.7575],[94.5435,24.712],[94.5347,24.6423],[94.3736,24.4938],[94.4058,24.4362],[94.2916,24.2331],[94.2535,24.1149],[94.2389,24.036],[94.1715,23.9299],[94.1569,23.8481],[94.0163,23.9269],[93.8933,23.9542],[93.8083,23.9269],[93.741,24.0057],[93.6238,24.0118],[93.5037,23.9421],[93.4158,24.0724],[93.3778,24.0876]]]}},{"type":"Feature","properties":{"name":"Tripura","area_km2":10193},"geometry":{"type":"Polygon","coordinates":[[[91.758,23.2661],[91.8166,23.1448],[91.8049,23.063],[91.72,22.9872],[91.5764,22.966],[91.5442,22.9993],[91.5091,23.1842],[91.4534,23.26],[91.3187,23.2782],[91.2542,23.4874],[91.1605,23.5935],[91.1547,23.742],[91.2279,23.7329],[91.2484,23.8299],[91.2191,23.8784],[91.3011,23.9966],[91.3743,24.0027],[91.471,24.0633],[91.6292,24.1027],[91.6555,24.1846],[91.7551,24.1421],[91.7463,24.2452],[91.8605,24.1846],[91.925,24.1088],[91.9426,24.2634],[91.9221,24.3392],[91.9718,24.3816],[92.0714,24.3756],[92.1388,24.4241],[92.1564,24.5241],[92.215,24.5089],[92.2589,24.3604],[92.2179,24.2876],[92.294,24.2452],[92.3292,24.1846],[92.3116,24.0512],[92.3233,23.9148],[92.256,23.8148],[92.2647,23.7268],[92.1769,23.7087],[92.1183,23.7329],[92.0597,23.642],[91.9367,23.6905],[91.9748,23.4813],[91.9426,23.4267],[91.8664,23.4449],[91.8049,23.5146],[91.8371,23.3722],[91.758,23.2661]]]}},{"type":"Feature","properties":{"name":"Andaman and Nicobar Islands","area_km2":6263},"geometry":{"type":"MultiPolygon","coordinates":[[[[92.792,9.2369],[92.8271,9.1399],[92.7275,9.1278],[92.7217,9.2187],[92.792,9.2369]]],[[[92.5196,10.8981],[92.5869,10.789],[92.5957,10.6829],[92.5313,10.5222],[92.4317,10.5525],[92.3848,10.6708],[92.379,10.7829],[92.5196,10.8981]]],[[[92.6397,11.5105],[92.6895,11.374],[92.5987,11.3468],[92.5869,11.4013],[92.6397,11.5105]]],[[[92.7568,12.1774],[92.7568,12.1743],[92.7334,12.0834],[92.7803,12.047],[92.707,11.9743],[92.792,11.8863],[92.7539,11.7014],[92.6602,11.6529],[92.751,11.6105],[92.666,11.5044],[92.5518,11.7196],[92.5342,11.9106],[92.6016,11.85],[92.6221,12.1016],[92.6602,12.2137],[92.7568,12.1774]]],[[[93.8376,7.2393],[93.8698,7.2059],[93.9138,6.9483],[93.8786,6.7937],[93.7995,6.7664],[93.7175,6.9907],[93.6677,7.024],[93.6443,7.1271],[93.6736,7.1908],[93.8376,7.2393]]],[[[93.7,7.4454],[93.7439,7.3757],[93.7117,7.312],[93.6355,7.2453],[93.6092,7.312],[93.7,7.4454]]],[[[92.8652,12.2349],[92.8564,12.1592],[92.7685,12.1834],[92.7392,12.2471],[92.8095,12.3138],[92.833,12.3016],[92.871,12.3016],[92.8652,12.2349]]],[[[92.874,12.332],[92.83,12.3016],[92.8095,12.3168],[92.7773,12.3138],[92.7187,12.2986],[92.6982,12.3289],[92.7129,12.5441],[92.7451,12.723],[92.7305,12.8352],[92.7949,12.8624],[92.789,13.0201],[92.8213,13.111],[92.8418,13.3899],[92.871,13.4717],[92.9326,13.499],[92.9882,13.5748],[93.0439,13.5293],[93.0321,13.3444],[93.0644,13.2717],[93.0321,13.1777],[93.0351,13.0807],[92.9589,13.017],[92.9121,13.0534],[92.8593,12.9018],[92.9238,12.8837],[92.9677,12.7412],[92.956,12.623],[92.9736,12.5441],[92.874,12.332]]]]}},{"type":"Feature","properties":{"name":"Uttar Pradesh","area_km2":242915},"geometry":{"type":"Polygon","coordinates":[[[78.9847,24.4422],[78.9905,24.418],[78.973,24.3483],[78.806,24.1785],[78.7035,24.227],[78.5863,24.3543],[78.5014,24.3907],[78.3901,24.2634],[78.3286,24.3271],[78.3696,24.3756],[78.2671,24.4513],[78.2759,24.6635],[78.1909,24.8424],[78.1704,24.8757],[78.3462,25.0121],[78.3345,25.0697],[78.3374,25.0849],[78.3725,25.1],[78.4458,25.1213],[78.3901,25.2061],[78.3432,25.3274],[78.3403,25.4153],[78.3403,25.4335],[78.355,25.4517],[78.396,25.4426],[78.4165,25.4759],[78.4194,25.5305],[78.4516,25.5729],[78.6566,25.5578],[78.7182,25.6033],[78.8119,25.6184],[78.765,25.7215],[78.8851,25.9125],[78.9378,25.9519],[78.9495,26.0276],[79.0111,26.0822],[78.9935,26.1974],[79.137,26.3399],[79.1341,26.4399],[78.9905,26.5794],[79.0081,26.6703],[78.8734,26.6976],[78.7797,26.7703],[78.5453,26.7643],[78.396,26.8158],[78.3579,26.8704],[78.2232,26.831],[78.27,26.9189],[78.1499,26.9492],[78.1119,26.8946],[77.9859,26.8886],[77.7604,26.934],[77.7223,26.8734],[77.5261,26.8188],[77.4558,26.743],[77.3972,26.831],[77.4909,26.9007],[77.6608,26.9704],[77.5495,27.1129],[77.6579,27.1705],[77.6461,27.2432],[77.4382,27.4554],[77.3386,27.5251],[77.3532,27.6525],[77.2829,27.798],[77.3445,27.8495],[77.4206,27.8556],[77.529,27.9253],[77.5407,27.9889],[77.4763,28.0859],[77.4997,28.2042],[77.5055,28.3709],[77.3474,28.5194],[77.2976,28.5679],[77.3415,28.6104],[77.3181,28.6407],[77.2976,28.7074],[77.2273,28.768],[77.2097,28.7922],[77.2214,28.8317],[77.2156,28.8529],[77.2332,28.9196],[77.1658,29.0348],[77.1424,29.1681],[77.1541,29.2985],[77.1277,29.35],[77.1306,29.4834],[77.1072,29.6319],[77.1511,29.6865],[77.1189,29.7562],[77.1746,29.8047],[77.2273,29.9381],[77.4558,30.1624],[77.5817,30.3079],[77.5788,30.3776],[77.5758,30.4019],[77.6579,30.4019],[77.7223,30.3291],[77.9595,30.2412],[77.86,30.1139],[77.8014,30.0957],[77.7164,29.8866],[77.819,29.6744],[77.9273,29.7138],[78.0211,29.5804],[78.1294,29.6532],[78.2027,29.738],[78.3345,29.7987],[78.5102,29.7259],[78.5336,29.641],[78.6156,29.5592],[78.8002,29.4652],[78.9261,29.4379],[78.85,29.347],[78.7592,29.2651],[78.8763,29.2045],[78.9261,29.1196],[78.9759,29.1318],[79.0345,29.1681],[79.1546,29.1166],[79.1429,29.0681],[79.26,28.9923],[79.4065,28.9529],[79.424,28.8983],[79.5851,28.8468],[79.6818,28.8559],[79.8195,28.8862],[79.9542,28.7225],[80.0303,28.7498],[80.0655,28.8377],[80.1211,28.8256],[80.2764,28.7104],[80.3145,28.6286],[80.4609,28.6255],[80.5517,28.6922],[80.6689,28.6437],[80.7157,28.5679],[81.0526,28.4042],[81.2137,28.3588],[81.2342,28.289],[81.3191,28.1981],[81.4245,28.1708],[81.4773,28.0829],[81.7438,27.9526],[81.8844,27.8556],[81.9605,27.9253],[82.0689,27.9253],[82.1216,27.8647],[82.2066,27.8434],[82.4497,27.6797],[82.6635,27.7222],[82.7045,27.704],[82.7543,27.5858],[82.7309,27.4857],[82.93,27.5009],[83.0355,27.4494],[83.1878,27.4524],[83.2903,27.3342],[83.343,27.3342],[83.4104,27.413],[83.3958,27.4797],[83.6154,27.4675],[83.8322,27.3705],[83.8615,27.3342],[83.9083,27.2735],[83.9933,27.1735],[83.964,27.0826],[84.0489,27.0432],[84.0606,26.8886],[84.2598,26.8037],[84.3301,26.6824],[84.418,26.6309],[84.2803,26.6006],[84.1134,26.6309],[84.0519,26.5521],[83.9142,26.5036],[83.9083,26.446],[84.1573,26.3763],[84.1778,26.2641],[84.087,26.2186],[84.0548,26.1004],[84.295,25.9458],[84.3535,25.9579],[84.4707,25.8821],[84.6259,25.7912],[84.5996,25.7336],[84.5586,25.679],[84.336,25.7427],[84.3184,25.6669],[84.2071,25.6699],[84.1397,25.7306],[84.0753,25.6942],[84.0811,25.6366],[83.9318,25.5578],[83.8468,25.4335],[83.7795,25.3971],[83.7414,25.4123],[83.6506,25.3395],[83.5363,25.3092],[83.3489,25.1849],[83.3518,25.0091],[83.3958,24.7818],[83.4895,24.7363],[83.5305,24.6423],[83.5246,24.5514],[83.5012,24.5241],[83.3987,24.4968],[83.3811,24.3149],[83.4104,24.2664],[83.3284,24.1027],[83.2083,23.9208],[83.0911,23.8723],[82.9476,23.8723],[82.8129,23.9633],[82.6635,24.127],[82.7455,24.1664],[82.769,24.3695],[82.7133,24.3786],[82.7455,24.4968],[82.7982,24.5756],[82.7719,24.6423],[82.7074,24.6362],[82.6694,24.6969],[82.5229,24.6757],[82.4175,24.6514],[82.4175,24.5938],[82.2974,24.6059],[82.2154,24.7939],[82.0953,24.8181],[81.943,24.8454],[81.8932,24.9879],[81.7936,25.003],[81.6676,25.0606],[81.6266,25.1607],[81.5417,25.188],[81.5007,25.1486],[81.3923,25.1304],[81.2781,25.1667],[81.2634,25.0546],[81.1609,24.9121],[81.1199,24.903],[81.035,24.9515],[80.9471,24.9667],[80.8592,24.9273],[80.83,25.0334],[80.8798,25.0667],[80.8446,25.188],[80.7245,25.1182],[80.7157,25.0667],[80.5927,25.091],[80.5019,25.0425],[80.4785,24.9758],[80.4023,25.0697],[80.3408,25.0121],[80.2647,25.0243],[80.291,25.0576],[80.3525,25.1243],[80.4316,25.1758],[80.4053,25.2425],[80.3115,25.285],[80.3145,25.388],[80.2207,25.3971],[80.1036,25.3517],[80.0333,25.3426],[79.8546,25.194],[79.84,25.1],[79.7492,25.1395],[79.673,25.1213],[79.5705,25.1728],[79.4914,25.0788],[79.4065,25.1061],[79.3918,25.1698],[79.4358,25.2546],[79.3537,25.3304],[79.2805,25.3244],[79.2629,25.2728],[79.2776,25.2425],[79.2922,25.1849],[79.304,25.1789],[79.3245,25.1486],[79.2454,25.1152],[79.1311,25.1091],[79.0638,25.2213],[78.929,25.2061],[78.8792,25.1576],[78.8705,25.188],[78.9613,25.3456],[78.8792,25.385],[78.9437,25.4911],[78.8851,25.5153],[78.7328,25.4577],[78.7738,25.3517],[78.6596,25.382],[78.5131,25.2759],[78.56,25.2122],[78.6391,25.0697],[78.6332,24.9576],[78.6771,24.8969],[78.7709,24.8606],[78.7797,24.706],[78.7504,24.5999],[78.8822,24.6423],[78.9525,24.5483],[78.9144,24.4604],[78.9847,24.4422]]]}},{"type":"Feature","properties":{"name":"Rajasthan","area_km2":345407},"geometry":{"type":"Polygon","coordinates":[[[74.3188,23.0599],[74.2485,23.1842],[74.1284,23.1751],[74.1401,23.2661],[73.982,23.3388],[73.9585,23.3813],[73.8912,23.3358],[73.8297,23.4267],[73.7564,23.454],[73.6276,23.448],[73.6569,23.6207],[73.5719,23.6541],[73.5221,23.6086],[73.4753,23.7056],[73.3698,23.8148],[73.3786,23.9027],[73.4167,23.9239],[73.405,24.0421],[73.3171,24.0542],[73.2439,24.0027],[73.2146,24.0785],[73.1267,24.1239],[73.0681,24.1937],[73.1501,24.3543],[73.0769,24.3968],[73.0886,24.4968],[73.0008,24.4786],[72.9598,24.3604],[72.7284,24.3665],[72.6844,24.4635],[72.5204,24.4998],[72.4999,24.418],[72.3535,24.5635],[72.3359,24.6332],[72.166,24.6211],[72.0576,24.712],[71.92,24.6726],[71.7911,24.6757],[71.6564,24.6393],[71.6095,24.6757],[71.4777,24.6787],[71.3781,24.6272],[71.2873,24.615],[71.1877,24.6514],[71.1116,24.6757],[70.9358,24.9394],[70.889,25.1486],[70.7513,25.2789],[70.6664,25.3971],[70.6751,25.676],[70.6078,25.7154],[70.5316,25.6821],[70.3881,25.673],[70.268,25.7124],[70.0981,25.9397],[70.0835,26.0822],[70.1391,26.155],[70.1743,26.252],[70.186,26.3732],[70.1743,26.5521],[70.0571,26.6006],[69.8872,26.5794],[69.7906,26.5975],[69.7203,26.6551],[69.5094,26.743],[69.483,26.8037],[69.5123,27.0098],[69.5856,27.1856],[69.8638,27.4039],[69.9341,27.4979],[70.0249,27.5615],[70.1333,27.8071],[70.227,27.901],[70.3705,28.0132],[70.5082,28.0374],[70.5873,28.0102],[70.6781,27.9222],[70.6839,27.8283],[70.7571,27.7222],[70.9065,27.7101],[71.2053,27.8374],[71.381,27.8737],[71.6681,27.8798],[71.876,27.9556],[71.8819,27.9132],[71.9287,28.1223],[71.9961,28.2072],[72.1308,28.3133],[72.207,28.3951],[72.3007,28.668],[72.4032,28.7832],[72.661,28.8923],[72.7313,28.9468],[72.9451,29.0287],[73.0037,29.153],[73.0828,29.2348],[73.2819,29.5713],[73.3991,29.9472],[73.5953,30.0199],[73.8062,30.0684],[73.9673,30.1927],[73.9761,30.12],[73.9029,30.0503],[73.8941,29.9745],[74.2983,29.9533],[74.4477,29.9472],[74.5268,29.9411],[74.5619,29.8684],[74.4858,29.8138],[74.4799,29.7441],[74.6176,29.7532],[74.5766,29.5652],[74.6234,29.5319],[74.5853,29.4591],[74.6029,29.3652],[74.7874,29.3621],[74.849,29.4046],[74.9368,29.3621],[74.9603,29.2803],[75.0511,29.2864],[75.0803,29.2288],[75.2414,29.2591],[75.3469,29.2833],[75.4055,29.2591],[75.3908,29.062],[75.4435,29.059],[75.5285,28.9711],[75.4758,28.9256],[75.5197,28.8347],[75.5607,28.6134],[75.6222,28.6013],[75.6691,28.5194],[75.8946,28.3891],[76.0557,28.2193],[76.0,28.1223],[76.0088,28.0587],[75.9737,27.9313],[75.9327,27.9283],[75.9708,27.8525],[76.0762,27.8404],[76.1758,27.798],[76.2256,27.8343],[76.1699,27.9041],[76.1582,27.998],[76.2607,28.0678],[76.3193,28.0162],[76.3603,28.1253],[76.3134,28.1769],[76.5419,28.0344],[76.539,27.9738],[76.6679,28.0132],[76.6884,28.0859],[76.7967,28.1466],[76.8524,28.2193],[76.9695,28.1375],[76.9315,27.995],[76.9432,27.8434],[76.8905,27.7313],[76.9783,27.6555],[77.0457,27.8222],[77.2829,27.798],[77.3532,27.6525],[77.3386,27.5251],[77.4382,27.4554],[77.6461,27.2432],[77.6579,27.1705],[77.5495,27.1129],[77.6608,26.9704],[77.4909,26.9007],[77.3972,26.831],[77.4558,26.743],[77.5261,26.8188],[77.7223,26.8734],[77.7604,26.934],[77.9859,26.8886],[78.1119,26.8946],[78.1499,26.9492],[78.27,26.9189],[78.2232,26.831],[78.1119,26.7946],[78.0884,26.6764],[78.0005,26.6945],[77.9039,26.6582],[77.8219,26.549],[77.7457,26.5369],[77.5378,26.4126],[77.4382,26.4035],[77.3737,26.3641],[77.2712,26.2671],[77.1189,26.2126],[76.9988,26.1307],[76.9022,26.0913],[76.8524,26.0307],[76.7879,25.9428],[76.7147,25.9003],[76.6415,25.9094],[76.5448,25.8397],[76.5038,25.6699],[76.5156,25.5275],[76.5946,25.4092],[76.6708,25.3486],[76.7616,25.3213],[76.8553,25.3335],[76.9461,25.285],[77.0838,25.3365],[77.2244,25.3183],[77.2332,25.3789],[77.3152,25.4305],[77.3679,25.4123],[77.4118,25.2243],[77.3942,25.1182],[77.3122,25.0819],[77.2683,25.1152],[77.1746,25.1122],[77.0867,25.0546],[77.0018,25.0758],[76.8758,25.0425],[76.8612,24.9606],[76.949,24.8697],[76.8055,24.806],[76.8553,24.7454],[76.9461,24.7605],[77.034,24.709],[77.0691,24.5574],[76.9783,24.4604],[76.8612,24.5483],[76.8172,24.5332],[76.8436,24.4362],[76.8319,24.3574],[76.8641,24.2725],[76.9227,24.2119],[76.8817,24.13],[76.8026,24.1179],[76.6766,24.1906],[76.6444,24.2695],[76.5712,24.2088],[76.5038,24.2028],[76.3222,24.2452],[76.2139,24.2088],[76.1172,24.1937],[76.126,24.0876],[76.0411,24.0664],[75.9385,23.8966],[75.795,23.8663],[75.6896,23.7481],[75.5841,23.7966],[75.5636,23.8572],[75.4611,23.9178],[75.5226,24.0239],[75.7013,23.9663],[75.836,24.0573],[75.7511,24.1421],[75.8126,24.2452],[75.7277,24.3968],[75.7862,24.4513],[75.9005,24.4422],[75.921,24.5423],[75.8243,24.6666],[75.7833,24.7605],[75.6076,24.6817],[75.549,24.7029],[75.4553,24.6817],[75.1829,24.7484],[75.3381,24.9515],[75.3527,25.0182],[75.1916,25.0364],[75.1126,24.9667],[75.1155,24.8788],[75.0393,24.8454],[74.9603,24.8575],[74.9017,24.9303],[74.8255,24.9],[74.8607,24.7999],[74.9778,24.7636],[74.9925,24.6938],[74.89,24.6332],[74.805,24.7363],[74.7728,24.6605],[74.7874,24.5847],[74.6966,24.4817],[74.8138,24.4695],[74.8548,24.4241],[74.7816,24.3392],[74.7552,24.2422],[74.8665,24.2422],[74.9075,24.2119],[74.8782,24.1725],[74.9749,24.0391],[74.9017,23.8723],[74.9398,23.7662],[74.9222,23.6662],[74.846,23.551],[74.7728,23.5419],[74.5707,23.4207],[74.5297,23.3206],[74.7347,23.2206],[74.5063,23.0842],[74.3862,23.1115],[74.3188,23.0599]]]}},{"type":"Feature","properties":{"name":"Delhi","area_km2":1398},"geometry":{"type":"Polygon","coordinates":[[[77.3415,28.6104],[77.2976,28.5679],[77.3474,28.5194],[77.2537,28.483],[77.1746,28.4042],[77.1189,28.4891],[77.0955,28.5103],[77.0076,28.5406],[76.8846,28.5012],[76.8465,28.5497],[76.8875,28.6316],[76.952,28.668],[76.9725,28.6983],[76.9432,28.7983],[76.9695,28.8104],[77.1219,28.8589],[77.2156,28.8529],[77.2214,28.8317],[77.2097,28.7922],[77.2273,28.768],[77.2976,28.7074],[77.3181,28.6407],[77.3415,28.6104]]]}},{"type":"Feature","properties":{"name":"Haryana","area_km2":44459},"geometry":{"type":"Polygon","coordinates":[[[75.8946,28.3891],[75.6691,28.5194],[75.6222,28.6013],[75.5607,28.6134],[75.5197,28.8347],[75.4758,28.9256],[75.5285,28.9711],[75.4435,29.059],[75.3908,29.062],[75.4055,29.2591],[75.3469,29.2833],[75.2414,29.2591],[75.0803,29.2288],[75.0511,29.2864],[74.9603,29.2803],[74.9368,29.3621],[74.849,29.4046],[74.7874,29.3621],[74.6029,29.3652],[74.5853,29.4591],[74.6234,29.5319],[74.5766,29.5652],[74.6176,29.7532],[74.4799,29.7441],[74.4858,29.8138],[74.5619,29.8684],[74.5268,29.9411],[74.6469,29.9108],[74.7054,29.9745],[74.8109,29.9927],[74.928,29.9502],[74.9983,29.8684],[75.1184,29.832],[75.1916,29.8441],[75.2414,29.7502],[75.1682,29.6683],[75.3029,29.5592],[75.3469,29.6956],[75.4611,29.8078],[75.5812,29.7411],[75.7218,29.8138],[75.7774,29.8229],[75.9473,29.7289],[76.0498,29.7471],[76.0996,29.8108],[76.2139,29.8411],[76.1729,29.926],[76.2549,30.0897],[76.4101,30.1442],[76.4658,30.0988],[76.5771,30.1018],[76.6386,30.1473],[76.6415,30.1503],[76.5624,30.2412],[76.7118,30.3261],[76.7469,30.4292],[76.911,30.4262],[76.8992,30.4443],[76.908,30.4595],[76.9256,30.6111],[76.829,30.6808],[76.8377,30.7535],[76.8465,30.8354],[76.7762,30.9051],[76.87,30.8718],[76.9168,30.899],[77.0252,30.7475],[77.1658,30.6838],[77.1716,30.602],[77.1219,30.5626],[77.2097,30.4868],[77.406,30.4262],[77.5231,30.4443],[77.5788,30.3776],[77.5817,30.3079],[77.4558,30.1624],[77.2273,29.9381],[77.1746,29.8047],[77.1189,29.7562],[77.1511,29.6865],[77.1072,29.6319],[77.1306,29.4834],[77.1277,29.35],[77.1541,29.2985],[77.1424,29.1681],[77.1658,29.0348],[77.2332,28.9196],[77.2156,28.8529],[77.1219,28.8589],[76.9695,28.8104],[76.9432,28.7983],[76.9725,28.6983],[76.952,28.668],[76.8875,28.6316],[76.8465,28.5497],[76.8846,28.5012],[77.0076,28.5406],[77.0955,28.5103],[77.1189,28.4891],[77.1746,28.4042],[77.2537,28.483],[77.3474,28.5194],[77.5055,28.3709],[77.4997,28.2042],[77.4763,28.0859],[77.5407,27.9889],[77.529,27.9253],[77.4206,27.8556],[77.3445,27.8495],[77.2829,27.798],[77.0457,27.8222],[76.9783,27.6555],[76.8905,27.7313],[76.9432,27.8434],[76.9315,27.995],[76.9695,28.1375],[76.8524,28.2193],[76.7967,28.1466],[76.6884,28.0859],[76.6679,28.0132],[76.539,27.9738],[76.5419,28.0344],[76.3134,28.1769],[76.3603,28.1253],[76.3193,28.0162],[76.2607,28.0678],[76.1582,27.998],[76.1699,27.9041],[76.2256,27.8343],[76.1758,27.798],[76.0762,27.8404],[75.9708,27.8525],[75.9327,27.9283],[75.9737,27.9313],[76.0088,28.0587],[76.0,28.1223],[76.0557,28.2193],[75.8946,28.3891]]]}},{"type":"Feature","properties":{"name":"Sikkim","area_km2":7059},"geometry":{"type":"Polygon","coordinates":[[[88.7207,27.1402],[88.5976,27.1887],[88.5332,27.1765],[88.4248,27.0704],[88.2813,27.1311],[88.1554,27.1098],[88.0968,27.1341],[88.0382,27.219],[88.0441,27.4797],[88.1144,27.6191],[88.1964,27.7889],[88.2052,27.9404],[88.4688,28.0162],[88.4951,28.0556],[88.6182,28.0981],[88.7558,28.0768],[88.8437,27.992],[88.8349,27.9283],[88.8876,27.8556],[88.8554,27.8161],[88.8495,27.6676],[88.7646,27.5645],[88.7939,27.416],[88.9198,27.319],[88.9023,27.2735],[88.8027,27.2463],[88.791,27.1856],[88.7207,27.1402]]]}},{"type":"Feature","properties":{"name":"Bihar","area_km2":94370},"geometry":{"type":"Polygon","coordinates":[[[84.4971,24.2876],[84.459,24.3361],[84.3418,24.3937],[84.3272,24.4907],[84.2569,24.5271],[84.0929,24.5332],[84.0079,24.6423],[83.9376,24.5483],[83.8732,24.5332],[83.7179,24.5029],[83.5012,24.5241],[83.5246,24.5514],[83.5305,24.6423],[83.4895,24.7363],[83.3958,24.7818],[83.3518,25.0091],[83.3489,25.1849],[83.5363,25.3092],[83.6506,25.3395],[83.7414,25.4123],[83.7795,25.3971],[83.8468,25.4335],[83.9318,25.5578],[84.0811,25.6366],[84.0753,25.6942],[84.1397,25.7306],[84.2071,25.6699],[84.3184,25.6669],[84.336,25.7427],[84.5586,25.679],[84.5996,25.7336],[84.6259,25.7912],[84.4707,25.8821],[84.3535,25.9579],[84.295,25.9458],[84.0548,26.1004],[84.087,26.2186],[84.1778,26.2641],[84.1573,26.3763],[83.9083,26.446],[83.9142,26.5036],[84.0519,26.5521],[84.1134,26.6309],[84.2803,26.6006],[84.418,26.6309],[84.3301,26.6824],[84.2598,26.8037],[84.0606,26.8886],[84.0489,27.0432],[83.964,27.0826],[83.9933,27.1735],[83.9083,27.2735],[83.8615,27.3342],[83.8322,27.4281],[84.0167,27.4372],[84.0987,27.516],[84.2569,27.4524],[84.2803,27.3948],[84.6201,27.3402],[84.6904,27.222],[84.6406,27.0492],[84.7577,27.0037],[84.8251,27.0219],[84.9628,26.9613],[85.0301,26.8734],[85.1912,26.8704],[85.1795,26.7976],[85.2557,26.7552],[85.3347,26.743],[85.5427,26.837],[85.6423,26.8522],[85.7302,26.8097],[85.7243,26.6733],[85.8151,26.6006],[85.859,26.5672],[85.9586,26.6521],[86.0289,26.6673],[86.19,26.6157],[86.3394,26.6066],[86.5415,26.5369],[86.5708,26.4975],[86.7231,26.4248],[86.8461,26.4429],[87.0424,26.5612],[87.0921,26.449],[87.1624,26.4035],[87.3675,26.4066],[87.4641,26.4399],[87.5871,26.3823],[87.6574,26.3793],[87.8478,26.4369],[88.0324,26.3914],[88.0997,26.4551],[88.1114,26.549],[88.2403,26.4581],[88.2784,26.3308],[88.1466,26.252],[88.0734,26.1762],[87.9767,26.1428],[87.8508,26.0398],[87.8537,26.0307],[87.842,25.9973],[87.8478,25.9913],[87.8215,25.9367],[87.8273,25.8912],[87.8918,25.867],[87.9679,25.7245],[88.0499,25.7003],[88.0206,25.5972],[88.0675,25.485],[87.9591,25.5396],[87.8654,25.4972],[87.7687,25.4153],[87.7834,25.3395],[87.8478,25.2971],[87.8185,25.2425],[87.7629,25.2637],[87.7102,25.2577],[87.6926,25.3122],[87.552,25.3304],[87.4788,25.194],[87.3265,25.2243],[87.2942,25.0879],[87.1771,25.0576],[87.1449,25.0182],[87.1566,24.8818],[87.1097,24.8515],[87.0511,24.6272],[86.9516,24.6302],[86.9135,24.5483],[86.7524,24.6181],[86.6528,24.5696],[86.6118,24.609],[86.5005,24.5089],[86.4536,24.3725],[86.3511,24.4483],[86.2779,24.4665],[86.3013,24.5605],[86.1314,24.6029],[86.1285,24.6999],[86.0553,24.7787],[85.9323,24.7393],[85.903,24.7666],[85.739,24.8212],[85.6657,24.6605],[85.6774,24.5908],[85.5427,24.5332],[85.3728,24.5544],[85.3318,24.5089],[85.2879,24.5241],[85.0887,24.3695],[85.0272,24.415],[84.9042,24.3725],[84.8866,24.4635],[84.8017,24.5302],[84.5849,24.3998],[84.4971,24.2876]]]}},{"type":"Feature","properties":{"name":"Jharkhand","area_km2":80139},"geometry":{"type":"Polygon","coordinates":[[[85.6833,22.0566],[85.3963,22.1627],[85.2762,22.0838],[85.2381,22.0111],[85.1795,22.0717],[85.0272,22.1233],[85.077,22.2566],[85.0711,22.49],[84.9569,22.4446],[84.8105,22.4537],[84.749,22.4203],[84.5351,22.4264],[84.4297,22.3506],[84.292,22.3415],[84.1954,22.3779],[84.1104,22.4779],[84.0108,22.5264],[84.0108,22.5719],[84.0841,22.6386],[84.1514,22.6356],[84.2393,22.6901],[84.292,22.772],[84.3242,22.8508],[84.3975,22.9266],[84.374,22.9781],[84.1778,22.9811],[84.0636,23.1145],[84.0372,23.1721],[84.0753,23.3328],[83.964,23.3843],[84.0138,23.5025],[84.0167,23.6359],[83.9376,23.5692],[83.7736,23.6086],[83.7062,23.8208],[83.5715,23.8633],[83.5158,23.9815],[83.4309,24.0845],[83.3284,24.1027],[83.4104,24.2664],[83.3811,24.3149],[83.3987,24.4968],[83.5012,24.5241],[83.7179,24.5029],[83.8732,24.5332],[83.9376,24.5483],[84.0079,24.6423],[84.0929,24.5332],[84.2569,24.5271],[84.3272,24.4907],[84.3418,24.3937],[84.459,24.3361],[84.4971,24.2876],[84.5849,24.3998],[84.8017,24.5302],[84.8866,24.4635],[84.9042,24.3725],[85.0272,24.415],[85.0887,24.3695],[85.2879,24.5241],[85.3318,24.5089],[85.3728,24.5544],[85.5427,24.5332],[85.6774,24.5908],[85.6657,24.6605],[85.739,24.8212],[85.903,24.7666],[85.9323,24.7393],[86.0553,24.7787],[86.1285,24.6999],[86.1314,24.6029],[86.3013,24.5605],[86.2779,24.4665],[86.3511,24.4483],[86.4536,24.3725],[86.5005,24.5089],[86.6118,24.609],[86.6528,24.5696],[86.7524,24.6181],[86.9135,24.5483],[86.9516,24.6302],[87.0511,24.6272],[87.1097,24.8515],[87.1566,24.8818],[87.1449,25.0182],[87.1771,25.0576],[87.2942,25.0879],[87.3265,25.2243],[87.4788,25.194],[87.552,25.3304],[87.6926,25.3122],[87.7102,25.2577],[87.7775,25.2486],[87.7805,25.1455],[87.7951,25.0879],[87.9533,24.9727],[87.9591,24.9212],[87.8918,24.8545],[87.839,24.7454],[87.9093,24.7211],[87.8888,24.5665],[87.7922,24.5817],[87.801,24.3816],[87.7072,24.2604],[87.6399,24.2543],[87.6311,24.1634],[87.4407,23.9815],[87.3353,24.036],[87.2327,24.0239],[87.2942,23.9027],[87.2327,23.8572],[87.1302,23.8542],[87.0863,23.8117],[86.9164,23.8814],[86.8022,23.8329],[86.8256,23.7662],[86.8022,23.6996],[86.7114,23.6996],[86.4858,23.6359],[86.3658,23.5328],[86.3101,23.4116],[86.1783,23.4692],[86.1578,23.5601],[86.0816,23.5662],[86.0406,23.4995],[85.8854,23.4843],[85.859,23.4298],[85.8825,23.351],[85.818,23.2691],[85.8854,23.166],[86.0436,23.1448],[86.2427,22.9963],[86.5005,22.9933],[86.4361,22.9266],[86.4185,22.7902],[86.5591,22.7144],[86.6411,22.6568],[86.6587,22.5749],[86.767,22.5749],[86.8022,22.487],[86.7641,22.4264],[86.8461,22.3991],[86.8344,22.3264],[86.729,22.2172],[86.5561,22.2991],[86.4976,22.3476],[86.4302,22.3173],[86.3599,22.3506],[86.2837,22.4476],[86.1197,22.487],[86.067,22.5567],[85.9616,22.484],[86.0172,22.4264],[86.0289,22.3354],[85.9733,22.2475],[86.0318,22.1899],[86.0084,22.1142],[85.8971,21.9838],[85.7829,21.9838],[85.7477,22.0747],[85.6833,22.0566]]]}},{"type":"Feature","properties":{"name":"Ladakh","area_km2":169336},"geometry":{"type":"Polygon","coordinates":[[[76.7733,33.2514],[76.5009,33.5151],[76.3105,33.5727],[76.2724,33.6424],[76.2637,33.7425],[76.1699,33.794],[76.0469,33.9274],[76.0206,33.9971],[75.8653,33.9789],[75.6866,34.1608],[75.5958,34.1972],[75.4963,34.2335],[75.4142,34.282],[75.385,34.3609],[75.3762,34.3881],[75.3205,34.4336],[75.3557,34.5306],[75.2385,34.6276],[75.1331,34.6458],[75.0188,34.6246],[74.9251,34.664],[74.7318,34.6701],[74.6,34.7367],[74.5619,34.7701],[74.3188,34.7852],[74.4125,34.8004],[74.4565,34.8519],[74.5678,34.8732],[74.5883,35.0096],[74.4858,35.1096],[74.3803,35.0581],[74.2514,35.0369],[74.146,35.0975],[73.7945,35.243],[73.7301,35.2157],[73.7008,35.3582],[73.7945,35.4612],[73.7857,35.5249],[73.6334,35.5704],[73.4079,35.5643],[73.1355,35.7189],[73.1531,35.8402],[73.0886,35.8826],[72.9275,35.8462],[72.9012,35.8796],[72.6903,35.8341],[72.535,35.9159],[72.5936,36.0281],[72.5292,36.0736],[72.5936,36.2615],[72.7782,36.31],[72.8836,36.3858],[72.8807,36.4434],[72.992,36.4555],[73.1121,36.6101],[73.1267,36.6859],[73.3142,36.7071],[73.4401,36.7435],[73.7008,36.6829],[73.8062,36.7162],[73.8619,36.7859],[73.7242,36.8344],[73.6891,36.9133],[73.8765,36.8951],[74.0552,36.8072],[74.1431,36.8405],[74.1694,36.9011],[74.2602,36.886],[74.4272,36.989],[74.5297,36.986],[74.5853,37.0436],[74.7084,37.077],[74.7347,37.0194],[74.8402,37.0224],[74.9222,36.9042],[75.0159,36.9739],[75.095,36.9436],[75.2092,37.0345],[75.344,37.0527],[75.3498,36.98],[75.423,36.9587],[75.4728,36.8102],[75.6163,36.7617],[75.7482,36.5889],[75.921,36.501],[76.0762,36.4737],[76.2549,36.3464],[76.3515,36.3585],[76.4306,36.307],[76.4804,36.21],[76.6005,36.1645],[76.6415,36.1827],[76.7177,36.0827],[76.7997,36.0463],[76.7235,35.9523],[76.8114,35.8432],[76.9344,35.7826],[77.116,35.7977],[77.1658,35.7341],[77.4294,35.6552],[77.4645,35.5734],[77.4353,35.5158],[77.611,35.4673],[77.7223,35.4764],[77.816,35.5128],[77.901,35.4673],[77.9654,35.5704],[78.0416,35.5855],[78.1353,35.5401],[78.1968,35.6704],[78.27,35.7219],[78.3842,35.7341],[78.4223,35.7856],[78.519,35.7613],[78.6654,35.8584],[78.8207,35.8553],[78.9583,35.8917],[79.0198,35.8493],[79.1311,35.8341],[79.1927,35.8856],[79.2161,35.9796],[79.3772,35.9948],[79.4211,35.8947],[79.8692,35.7826],[79.9981,35.8371],[80.1065,35.6795],[80.291,35.6067],[80.3262,35.4703],[80.2237,35.2187],[80.1797,35.1672],[80.1739,35.0035],[80.0713,34.8277],[80.0684,34.7125],[79.9425,34.6822],[79.8575,34.6882],[79.7755,34.6276],[79.7931,34.4851],[79.591,34.5003],[79.5061,34.476],[79.591,34.282],[79.5061,34.2063],[79.4943,34.1335],[79.3537,34.0365],[79.1956,34.0517],[79.1341,34.0274],[79.0198,34.0517],[78.9056,33.9759],[78.9993,33.8031],[79.0462,33.7637],[79.1048,33.6182],[78.9876,33.6121],[78.9144,33.5727],[78.932,33.4333],[78.9876,33.3332],[79.1106,33.2908],[79.2395,33.2969],[79.4533,33.2574],[79.3742,33.0847],[79.4211,32.9604],[79.5676,32.7876],[79.6261,32.7391],[79.4475,32.5329],[79.3186,32.5936],[79.1927,32.4814],[79.1341,32.4784],[79.1136,32.3844],[79.0316,32.3874],[78.9818,32.3389],[78.8558,32.439],[78.7767,32.5572],[78.7592,32.6542],[78.6625,32.6542],[78.4575,32.5814],[78.3989,32.5239],[78.311,32.5724],[78.4048,32.6209],[78.3872,32.7573],[78.2202,32.6633],[78.1441,32.6815],[78.0972,32.63],[78.0152,32.6209],[77.9185,32.6906],[77.9361,32.727],[77.8102,32.9088],[77.7399,32.9695],[77.6022,32.9422],[77.4675,32.8573],[77.406,32.8816],[77.3386,32.8179],[77.2742,32.8755],[77.1511,32.9786],[77.0106,32.9877],[76.9344,33.0271],[76.8846,33.121],[76.8172,33.1604],[76.7733,33.2514]]]}},{"type":"Feature","properties":{"name":"Jammu and Kashmir","area_km2":53402},"geometry":{"type":"Polygon","coordinates":[[[74.4477,32.7906],[74.3832,32.7573],[74.1782,32.8816],[74.0611,32.9088],[73.9585,32.9877],[73.8297,33.0089],[73.6891,33.0877],[73.6276,33.0907],[73.6569,33.2089],[73.5631,33.3423],[73.6217,33.5727],[73.5602,33.6212],[73.5983,33.7121],[73.5602,33.7758],[73.5895,33.8819],[73.5221,33.985],[73.487,34.1456],[73.4928,34.2214],[73.3903,34.373],[73.446,34.5731],[73.6188,34.5852],[73.7506,34.7852],[73.9644,34.8428],[74.0728,34.9398],[74.0669,35.049],[74.146,35.0975],[74.2514,35.0369],[74.3803,35.0581],[74.4858,35.1096],[74.5883,35.0096],[74.5678,34.8732],[74.4565,34.8519],[74.4125,34.8004],[74.3188,34.7852],[74.5619,34.7701],[74.6,34.7367],[74.7318,34.6701],[74.9251,34.664],[75.0188,34.6246],[75.1331,34.6458],[75.2385,34.6276],[75.3557,34.5306],[75.3205,34.4336],[75.3762,34.3881],[75.385,34.3609],[75.4142,34.282],[75.4963,34.2335],[75.5958,34.1972],[75.6866,34.1608],[75.8653,33.9789],[76.0206,33.9971],[76.0469,33.9274],[76.1699,33.794],[76.2637,33.7425],[76.2724,33.6424],[76.3105,33.5727],[76.5009,33.5151],[76.7733,33.2514],[76.7469,33.1786],[76.6444,33.1604],[76.5683,33.2089],[76.4101,33.1877],[76.2929,33.1028],[76.2227,33.021],[76.1113,33.0058],[76.0879,32.9573],[75.9532,32.8725],[75.8507,32.9301],[75.8009,32.8846],[75.9239,32.7482],[75.918,32.633],[75.836,32.5117],[75.7277,32.4511],[75.6866,32.3905],[75.5958,32.3783],[75.5138,32.3086],[75.341,32.345],[75.2063,32.4178],[75.1067,32.4602],[74.9456,32.4481],[74.89,32.5208],[74.8695,32.4875],[74.682,32.4935],[74.6381,32.6118],[74.6586,32.7876],[74.515,32.7451],[74.4477,32.7906]]]}},{"type":"Feature","properties":{"name":"Himachal Pradesh","area_km2":56038},"geometry":{"type":"Polygon","coordinates":[[[76.7762,30.9051],[76.7323,30.9385],[76.6239,30.9991],[76.6444,31.2082],[76.5888,31.2749],[76.498,31.2689],[76.4306,31.3265],[76.3925,31.4144],[76.29,31.3083],[76.1992,31.3022],[76.1201,31.4993],[76.0176,31.6326],[75.962,31.7812],[75.962,31.857],[75.9092,31.9509],[75.6544,32.0782],[75.5988,32.0813],[75.6017,32.0934],[75.6603,32.1389],[75.6369,32.251],[75.7716,32.2874],[75.8741,32.3965],[75.9327,32.3935],[75.836,32.5117],[75.918,32.633],[75.9239,32.7482],[75.8009,32.8846],[75.8507,32.9301],[75.9532,32.8725],[76.0879,32.9573],[76.1113,33.0058],[76.2227,33.021],[76.2929,33.1028],[76.4101,33.1877],[76.5683,33.2089],[76.6444,33.1604],[76.7469,33.1786],[76.7733,33.2514],[76.8172,33.1604],[76.8846,33.121],[76.9344,33.0271],[77.0106,32.9877],[77.1511,32.9786],[77.2742,32.8755],[77.3386,32.8179],[77.406,32.8816],[77.4675,32.8573],[77.6022,32.9422],[77.7399,32.9695],[77.8102,32.9088],[77.9361,32.727],[77.9185,32.6906],[78.0152,32.6209],[78.0972,32.63],[78.1441,32.6815],[78.2202,32.6633],[78.3872,32.7573],[78.4048,32.6209],[78.311,32.5724],[78.3989,32.5239],[78.4545,32.4511],[78.5336,32.4147],[78.4809,32.348],[78.4809,32.2783],[78.6098,32.2147],[78.5922,32.154],[78.6742,32.0782],[78.7826,31.9934],[78.7064,31.7751],[78.765,31.6751],[78.847,31.6084],[78.7357,31.5356],[78.7972,31.4447],[78.7504,31.3659],[78.7914,31.3052],[78.8822,31.284],[78.9847,31.1749],[79.0081,31.1112],[78.8851,31.0991],[78.809,31.1991],[78.6713,31.1961],[78.6098,31.2295],[78.4838,31.1991],[78.3696,31.2871],[78.311,31.284],[78.2466,31.2295],[78.1031,31.187],[77.9683,31.1749],[77.8658,31.1082],[77.8307,31.0294],[77.8072,30.8536],[77.7047,30.7626],[77.819,30.5595],[77.816,30.505],[77.5758,30.4019],[77.5788,30.3776],[77.5231,30.4443],[77.406,30.4262],[77.2097,30.4868],[77.1219,30.5626],[77.1716,30.602],[77.1658,30.6838],[77.0252,30.7475],[76.9168,30.899],[76.87,30.8718],[76.7762,30.9051]]]}},{"type":"Feature","properties":{"name":"Punjab","area_km2":50363},"geometry":{"type":"Polygon","coordinates":[[[75.3029,29.5592],[75.1682,29.6683],[75.2414,29.7502],[75.1916,29.8441],[75.1184,29.832],[74.9983,29.8684],[74.928,29.9502],[74.8109,29.9927],[74.7054,29.9745],[74.6469,29.9108],[74.5268,29.9411],[74.4477,29.9472],[74.2983,29.9533],[73.8941,29.9745],[73.9029,30.0503],[73.9761,30.12],[73.9673,30.1927],[73.9615,30.2716],[73.8795,30.3595],[73.9644,30.4231],[73.9644,30.4837],[74.2163,30.6899],[74.3657,30.893],[74.5971,31.0385],[74.7084,31.0718],[74.6908,31.1294],[74.5121,31.1325],[74.5531,31.3659],[74.6527,31.4568],[74.6117,31.4993],[74.5033,31.7387],[74.559,31.7569],[74.5707,31.8388],[74.6674,31.9236],[74.805,31.9631],[74.9134,32.0449],[75.013,32.0358],[75.1213,32.0813],[75.1741,32.0661],[75.3791,32.1843],[75.382,32.2692],[75.341,32.345],[75.5138,32.3086],[75.5958,32.3783],[75.6866,32.3905],[75.7277,32.4511],[75.836,32.5117],[75.9327,32.3935],[75.8741,32.3965],[75.7716,32.2874],[75.6369,32.251],[75.6603,32.1389],[75.6017,32.0934],[75.5988,32.0813],[75.6544,32.0782],[75.9092,31.9509],[75.962,31.857],[75.962,31.7812],[76.0176,31.6326],[76.1201,31.4993],[76.1992,31.3022],[76.29,31.3083],[76.3925,31.4144],[76.4306,31.3265],[76.498,31.2689],[76.5888,31.2749],[76.6444,31.2082],[76.6239,30.9991],[76.7323,30.9385],[76.7762,30.9051],[76.8465,30.8354],[76.8377,30.7535],[76.7089,30.7626],[76.7382,30.6929],[76.829,30.6808],[76.9256,30.6111],[76.908,30.4595],[76.8992,30.4443],[76.911,30.4262],[76.7469,30.4292],[76.7118,30.3261],[76.5624,30.2412],[76.6415,30.1503],[76.6386,30.1473],[76.5771,30.1018],[76.4658,30.0988],[76.4101,30.1442],[76.2549,30.0897],[76.1729,29.926],[76.2139,29.8411],[76.0996,29.8108],[76.0498,29.7471],[75.9473,29.7289],[75.7774,29.8229],[75.7218,29.8138],[75.5812,29.7411],[75.4611,29.8078],[75.3469,29.6956],[75.3029,29.5592]]]}},{"type":"Feature","properties":{"name":"Uttarakhand","area_km2":53418},"geometry":{"type":"Polygon","coordinates":[[[78.3345,29.7987],[78.2027,29.738],[78.1294,29.6532],[78.0211,29.5804],[77.9273,29.7138],[77.819,29.6744],[77.7164,29.8866],[77.8014,30.0957],[77.86,30.1139],[77.9595,30.2412],[77.7223,30.3291],[77.6579,30.4019],[77.5758,30.4019],[77.816,30.505],[77.819,30.5595],[77.7047,30.7626],[77.8072,30.8536],[77.8307,31.0294],[77.8658,31.1082],[77.9683,31.1749],[78.1031,31.187],[78.2466,31.2295],[78.311,31.284],[78.3696,31.2871],[78.4838,31.1991],[78.6098,31.2295],[78.6713,31.1961],[78.809,31.1991],[78.8851,31.0991],[79.0081,31.1112],[78.9847,31.1749],[78.8822,31.284],[78.9437,31.3659],[79.0081,31.378],[79.0726,31.4568],[79.137,31.4326],[79.1663,31.3598],[79.2337,31.3325],[79.2219,31.2598],[79.2952,31.2173],[79.3186,31.1355],[79.4065,31.0749],[79.5061,31.0324],[79.6027,30.9324],[79.7316,30.9779],[79.8634,30.9718],[79.8898,30.9172],[80.0538,30.8445],[80.1006,30.7899],[80.1739,30.8081],[80.25,30.7444],[80.2119,30.5838],[80.417,30.5262],[80.54,30.4474],[80.6074,30.4716],[80.7099,30.4171],[80.8036,30.3231],[80.9998,30.2685],[81.0438,30.2109],[80.9295,30.1745],[80.7626,30.0503],[80.6747,29.9563],[80.6015,29.9563],[80.5546,29.8502],[80.4345,29.8047],[80.3672,29.7411],[80.4082,29.5956],[80.3408,29.5107],[80.2412,29.444],[80.3174,29.3015],[80.2588,29.1863],[80.1446,29.1014],[80.1182,28.9802],[80.0743,28.9408],[80.0655,28.8377],[80.0303,28.7498],[79.9542,28.7225],[79.8195,28.8862],[79.6818,28.8559],[79.5851,28.8468],[79.424,28.8983],[79.4065,28.9529],[79.26,28.9923],[79.1429,29.0681],[79.1546,29.1166],[79.0345,29.1681],[78.9759,29.1318],[78.9261,29.1196],[78.8763,29.2045],[78.7592,29.2651],[78.85,29.347],[78.9261,29.4379],[78.8002,29.4652],[78.6156,29.5592],[78.5336,29.641],[78.5102,29.7259],[78.3345,29.7987]]]}},{"type":"Feature","properties":{"name":"Chandigarh","area_km2":82},"geometry":{"type":"Polygon","coordinates":[[[76.8377,30.7535],[76.829,30.6808],[76.7382,30.6929],[76.7089,30.7626],[76.8377,30.7535]]]}}]}